{"type":"FeatureCollection","features":[{"type":"Feature","properties":{"date":"2026-08-16","source":"DeepStateUA via github.com/cyterat/deepstate-map-data"},"geometry":{"type":"MultiPolygon","coordinates":[[[[35.31126,45.41142],[35.38206,45.35251],[35.46784,45.30754],[35.49876,45.30618],[35.52582,45.29119],[35.6329,45.32458],[35.71557,45.33846],[35.72485,45.35159],[35.75373,45.36655],[35.76098,45.38126],[35.74889,45.38463],[35.74573,45.39066],[35.74893,45.39633],[35.80236,45.42429],[35.82648,45.44013],[35.81837,45.45142],[35.81775,45.45887],[35.82365,45.46632],[35.84177,45.47447],[35.86783,45.47325],[35.87606,45.46386],[35.86369,45.45422],[35.84651,45.44651],[35.88684,45.40777],[35.94122,45.38004],[35.99701,45.37149],[36.04285,45.38401],[36.06894,45.40437],[36.06878,45.44546],[36.12387,45.46362],[36.17039,45.47236],[36.26535,45.47857],[36.29368,45.48386],[36.30798,45.47541],[36.32287,45.4713],[36.3363,45.47422],[36.34005,45.47758],[36.33933,45.48251],[36.34485,45.48431],[36.34551,45.48089],[36.35756,45.47162],[36.37289,45.47138],[36.3766,45.46369],[36.40184,45.45018],[36.41546,45.44682],[36.42142,45.446],[36.43247,45.44788],[36.43401,45.45068],[36.44206,45.45328],[36.44154,45.45541],[36.44717,45.46014],[36.46109,45.45643],[36.47055,45.45851],[36.48206,45.45577],[36.49546,45.45051],[36.49975,45.44548],[36.50695,45.44226],[36.51883,45.43352],[36.53267,45.42719],[36.54783,45.42561],[36.55447,45.42437],[36.56594,45.42844],[36.56567,45.43662],[36.57528,45.44225],[36.58704,45.44127],[36.59828,45.43866],[36.60635,45.42872],[36.61553,45.42227],[36.6115,45.41492],[36.60759,45.41257],[36.61127,45.40754],[36.63464,45.39174],[36.6412,45.39067],[36.64873,45.38292],[36.64321,45.37781],[36.6335,45.37565],[36.63011,45.37379],[36.63322,45.36281],[36.63057,45.36052],[36.62564,45.36076],[36.61203,45.35594],[36.60599,45.34773],[36.59655,45.34503],[36.59234,45.3465],[36.56444,45.34711],[36.54435,45.34474],[36.53498,45.34564],[36.53522,45.34992],[36.51829,45.35154],[36.48364,45.35086],[36.47781,45.34913],[36.47204,45.34123],[36.47329,45.33074],[36.48884,45.32461],[36.4995,45.31867],[36.48444,45.30548],[36.43518,45.29507],[36.42166,45.28658],[36.42601,45.27864],[36.43633,45.27624],[36.43962,45.27162],[36.43578,45.25807],[36.42371,45.24526],[36.42305,45.23723],[36.41202,45.22588],[36.40391,45.21416],[36.40773,45.1934],[36.40778,45.17289],[36.41778,45.16429],[36.42143,45.15292],[36.42254,45.13694],[36.4258,45.1344],[36.42563,45.12889],[36.43318,45.11769],[36.4397,45.11673],[36.45461,45.10556],[36.45602,45.09562],[36.4401,45.08333],[36.39098,45.06536],[36.37288,45.05747],[36.33772,45.0583],[36.30933,45.05792],[36.28214,45.05499],[36.24915,45.04769],[36.24793,45.04068],[36.22568,45.02682],[36.21349,45.02807],[36.20105,45.03302],[36.16004,45.03592],[36.07129,45.04825],[36.0354,45.04922],[36.01256,45.04493],[35.99495,45.03511],[35.98421,45.02286],[35.95408,45.01122],[35.92585,45.01911],[35.90766,45.01808],[35.90029,45.01419],[35.87934,45.00977],[35.87059,45.00419],[35.8421,44.99837],[35.8348,44.99921],[35.82828,45.00455],[35.83411,45.0091],[35.82978,45.01408],[35.82195,45.0192],[35.81016,45.02142],[35.81448,45.03331],[35.80489,45.04556],[35.78533,45.05763],[35.77788,45.0663],[35.74879,45.08147],[35.69214,45.10463],[35.62977,45.1223],[35.58496,45.12936],[35.54135,45.12586],[35.45106,45.09737],[35.41464,45.07541],[35.3894,45.04944],[35.38597,45.03525],[35.41265,45.02578],[35.42869,45.01291],[35.39522,44.99934],[35.36674,44.99256],[35.35842,44.98555],[35.3561,44.97733],[35.39404,44.95493],[35.38297,44.94389],[35.3518,44.95495],[35.34432,44.96419],[35.32247,44.95921],[35.32281,44.96644],[35.30152,44.96578],[35.29499,44.95971],[35.28364,44.96616],[35.27128,44.9676],[35.25841,44.9609],[35.24983,44.95282],[35.25652,44.93842],[35.24365,44.91679],[35.21661,44.90901],[35.2056,44.91022],[35.19056,44.90789],[35.17757,44.90094],[35.16931,44.90025],[35.15624,44.88691],[35.14415,44.867],[35.13939,44.86125],[35.13057,44.82931],[35.1331,44.82281],[35.11845,44.81723],[35.11102,44.80702],[35.09398,44.80138],[35.08106,44.79061],[35.06442,44.79711],[35.04367,44.79946],[35.04727,44.81484],[35.0295,44.82825],[35.0007,44.83203],[34.9887,44.82807],[34.98099,44.83447],[34.96782,44.83803],[34.94253,44.83384],[34.93503,44.83004],[34.92099,44.82875],[34.92032,44.82153],[34.9121,44.81577],[34.84517,44.8133],[34.83093,44.81691],[34.76373,44.81506],[34.74799,44.80706],[34.72881,44.80783],[34.67786,44.78786],[34.62563,44.77396],[34.54461,44.74101],[34.47496,44.71507],[34.43215,44.68277],[34.41218,44.65881],[34.40392,44.63975],[34.38968,44.62888],[34.38342,44.61588],[34.37789,44.61231],[34.37582,44.5917],[34.35435,44.58568],[34.34981,44.57185],[34.34904,44.54677],[34.33484,44.54551],[34.32014,44.55109],[34.30895,44.55209],[34.26036,44.50756],[34.17198,44.49101],[34.12894,44.42788],[34.05723,44.41652],[34.03499,44.40367],[33.96341,44.38885],[33.93941,44.38965],[33.88242,44.40027],[33.84603,44.40114],[33.77874,44.38145],[33.75901,44.38693],[33.73309,44.38333],[33.70289,44.41693],[33.67387,44.41281],[33.64553,44.42192],[33.63834,44.45869],[33.62701,44.47958],[33.60195,44.49174],[33.55405,44.48688],[33.50607,44.50085],[33.48624,44.49497],[33.47273,44.51114],[33.46013,44.52289],[33.40369,44.55324],[33.37331,44.58406],[33.45016,44.61595],[33.49462,44.61777],[33.50827,44.63192],[33.51247,44.63315],[33.52105,44.64026],[33.52569,44.63836],[33.53119,44.64111],[33.53567,44.64599],[33.54186,44.65893],[33.54636,44.67798],[33.54744,44.69856],[33.54577,44.7078],[33.54758,44.72445],[33.53978,44.74432],[33.54072,44.76176],[33.53351,44.79261],[33.54063,44.80265],[33.54552,44.80417],[33.54714,44.81013],[33.54955,44.81083],[33.55023,44.82224],[33.54851,44.8346],[33.55297,44.84166],[33.55691,44.84059],[33.56103,44.84232],[33.56969,44.83884],[33.57896,44.84049],[33.58686,44.847],[33.59064,44.84572],[33.59464,44.84758],[33.60086,44.85766],[33.6052,44.86639],[33.60645,44.8717],[33.61059,44.89932],[33.61096,44.92572],[33.59765,44.97655],[33.60438,44.98047],[33.6026,44.99797],[33.58086,45.05088],[33.56149,45.08107],[33.53638,45.10955],[33.50926,45.13445],[33.48076,45.15589],[33.45085,45.17424],[33.43265,45.18409],[33.41599,45.1914],[33.40855,45.19344],[33.40077,45.19606],[33.3912,45.19738],[33.38275,45.19647],[33.37644,45.19185],[33.37629,45.18766],[33.38028,45.18591],[33.37497,45.18368],[33.35843,45.17825],[33.35001,45.1737],[33.33155,45.17188],[33.32514,45.17412],[33.31839,45.17458],[33.31006,45.1741],[33.30524,45.17277],[33.30122,45.17064],[33.29896,45.16779],[33.29792,45.16563],[33.30014,45.16203],[33.29604,45.15772],[33.28829,45.15411],[33.28429,45.14828],[33.27516,45.1459],[33.26804,45.14563],[33.25729,45.1478],[33.24594,45.15694],[33.23435,45.16822],[33.22529,45.17469],[33.20198,45.18323],[33.18524,45.18372],[33.17982,45.18765],[33.16583,45.19347],[33.15733,45.19877],[33.14883,45.20214],[33.1434,45.20709],[33.13891,45.21632],[33.12409,45.22571],[33.10791,45.23151],[33.0932,45.24883],[33.08123,45.25842],[33.06278,45.27566],[33.03524,45.29016],[32.99185,45.3225],[32.96677,45.33669],[32.90702,45.35944],[32.84671,45.36526],[32.76522,45.36384],[32.73539,45.35497],[32.71216,45.34131],[32.6855,45.3321],[32.67569,45.32061],[32.65299,45.31332],[32.62211,45.31763],[32.59946,45.32532],[32.57854,45.32764],[32.56982,45.33289],[32.55185,45.33239],[32.48945,45.34614],[32.51038,45.36088],[32.51346,45.37204],[32.50744,45.38196],[32.48864,45.38499],[32.47894,45.38916],[32.4797,45.40426],[32.48807,45.40796],[32.50039,45.42466],[32.52427,45.43887],[32.53821,45.45488],[32.56214,45.47022],[32.59058,45.48558],[32.69178,45.52388],[32.72322,45.53303],[32.73688,45.54301],[32.77211,45.55787],[32.79318,45.56389],[32.82032,45.55982],[32.82597,45.55733],[32.83396,45.56023],[32.84065,45.56511],[32.84314,45.5706],[32.84356,45.57683],[32.84101,45.58241],[32.83729,45.58335],[32.82925,45.5836],[32.8213,45.58301],[32.82013,45.58439],[32.82018,45.58684],[32.82504,45.59061],[32.90869,45.64034],[32.99939,45.68115],[33.00634,45.67938],[33.01715,45.68701],[33.05014,45.69696],[33.0691,45.70683],[33.07768,45.70739],[33.0957,45.7155],[33.11464,45.71278],[33.12791,45.71984],[33.1378,45.71981],[33.15292,45.73336],[33.15918,45.74918],[33.16574,45.78827],[33.17584,45.80574],[33.18234,45.80993],[33.18583,45.80795],[33.18062,45.79721],[33.17249,45.7866],[33.18211,45.7739],[33.21192,45.75773],[33.23866,45.7528],[33.28061,45.76267],[33.32241,45.77504],[33.37349,45.79719],[33.41709,45.8302],[33.43221,45.83858],[33.48297,45.8544],[33.51795,45.86778],[33.54059,45.88491],[33.5441,45.88034],[33.52006,45.85771],[33.50089,45.84835],[33.50762,45.84107],[33.51765,45.84659],[33.52717,45.84972],[33.53712,45.8458],[33.54213,45.84026],[33.54821,45.84353],[33.55172,45.85163],[33.55864,45.86172],[33.56872,45.87401],[33.58165,45.87121],[33.59372,45.88529],[33.61627,45.89214],[33.6341,45.88261],[33.64223,45.87633],[33.65466,45.87523],[33.66223,45.87152],[33.6616,45.86426],[33.67413,45.85743],[33.68419,45.8501],[33.68472,45.85889],[33.67908,45.86731],[33.67995,45.87505],[33.67837,45.88514],[33.67511,45.89887],[33.67621,45.90395],[33.68009,45.90854],[33.68777,45.91275],[33.69197,45.91347],[33.69754,45.91137],[33.70199,45.911],[33.72024,45.92464],[33.73093,45.93019],[33.74951,45.92828],[33.75603,45.93111],[33.75799,45.93449],[33.75578,45.93928],[33.75108,45.9488],[33.74728,45.94669],[33.74494,45.95033],[33.72296,45.95016],[33.69231,45.95526],[33.68286,45.9528],[33.65976,45.95459],[33.64014,45.94936],[33.6475,45.94517],[33.64208,45.94288],[33.63499,45.94133],[33.6245,45.94252],[33.61761,45.94424],[33.61648,45.94907],[33.62776,45.95885],[33.62969,45.96743],[33.62938,45.97746],[33.62854,45.9876],[33.62287,45.99762],[33.61872,46.01252],[33.61134,46.05482],[33.6237,46.07172],[33.63728,46.08135],[33.63304,46.09738],[33.61656,46.11536],[33.61296,46.12915],[33.61253,46.13824],[33.60668,46.14688],[33.58057,46.15718],[33.54537,46.12331],[33.51398,46.10751],[33.56169,46.07406],[33.51512,46.08243],[33.4967,46.07031],[33.49314,46.05272],[33.51018,46.02845],[33.49114,46.03224],[33.46042,46.04603],[33.43709,46.04017],[33.40758,46.04096],[33.36646,46.07525],[33.34995,46.09314],[33.31831,46.09911],[33.31823,46.0763],[33.28855,46.07496],[33.27804,46.09452],[33.303,46.0936],[33.30861,46.11432],[33.28401,46.12504],[33.25666,46.13865],[33.20802,46.12703],[33.22289,46.15704],[33.19531,46.17014],[33.18145,46.14756],[33.14047,46.12764],[33.10157,46.13187],[33.06265,46.15559],[33.03148,46.14973],[33.0296,46.11324],[32.91328,46.10679],[32.86372,46.11572],[32.82898,46.11137],[32.75845,46.11903],[32.73285,46.10979],[32.70374,46.10623],[32.67705,46.09982],[32.64666,46.10786],[32.59614,46.09585],[32.54428,46.08048],[32.53963,46.0735],[32.54185,46.06819],[32.55212,46.06828],[32.62006,46.0604],[32.71936,46.03907],[32.79528,46.03031],[32.87857,46.02592],[32.90804,46.02662],[32.92652,46.0312],[32.93628,46.03969],[32.94141,46.04609],[32.97288,46.03074],[33.01745,46.02567],[33.04966,46.02775],[33.07006,46.0142],[33.03638,46.00803],[32.96804,46.01257],[32.91207,46.0104],[32.73962,46.03361],[32.63788,46.0537],[32.5749,46.06373],[32.54654,46.06529],[32.38922,46.09455],[32.22604,46.13189],[32.23839,46.14981],[32.22794,46.16838],[32.23988,46.17854],[32.22181,46.18774],[32.2081,46.18683],[32.20613,46.17221],[32.18702,46.17569],[32.16596,46.19692],[32.12115,46.20442],[32.08783,46.22149],[32.07775,46.23895],[32.05142,46.24981],[32.02854,46.24562],[31.96951,46.25724],[31.9556,46.26593],[31.94374,46.28559],[31.93682,46.29217],[31.90449,46.29747],[31.89507,46.28077],[31.88329,46.27345],[31.874,46.26529],[31.87083,46.2658],[31.86122,46.27217],[31.85074,46.26828],[31.8477,46.26795],[31.83519,46.27286],[31.83314,46.26982],[31.83469,46.26617],[31.8183,46.26434],[31.81324,46.26477],[31.81436,46.26948],[31.80972,46.27212],[31.7917,46.27392],[31.78451,46.26889],[31.78441,46.26511],[31.7796,46.2645],[31.7772,46.26816],[31.78329,46.27254],[31.78213,46.27687],[31.77511,46.28229],[31.77554,46.28549],[31.77121,46.28887],[31.77451,46.29395],[31.76802,46.29655],[31.75809,46.29487],[31.74774,46.29817],[31.74559,46.30605],[31.77254,46.32717],[31.82345,46.33713],[31.86828,46.33438],[31.96977,46.34839],[32.00905,46.36414],[32.03557,46.41659],[32.02904,46.43757],[32.00224,46.45346],[31.97484,46.43923],[31.95282,46.43748],[31.89212,46.45683],[31.79702,46.47814],[31.7709,46.48458],[31.74204,46.48534],[31.71645,46.47868],[31.70426,46.46658],[31.69692,46.45751],[31.69712,46.44726],[31.70698,46.44546],[31.72026,46.43335],[31.73767,46.42622],[31.77689,46.37412],[31.77384,46.37116],[31.74521,46.38643],[31.72495,46.41447],[31.6943,46.44034],[31.65675,46.46892],[31.61425,46.50195],[31.54695,46.53873],[31.52162,46.56161],[31.5113,46.57669],[31.51342,46.58083],[31.53052,46.55763],[31.55408,46.54547],[31.58167,46.53725],[31.6315,46.54052],[31.66286,46.53641],[31.69765,46.54503],[31.75692,46.54796],[31.80707,46.52946],[31.86491,46.51762],[31.88156,46.5183],[31.89875,46.51861],[31.90491,46.51796],[31.91091,46.51156],[31.99939,46.48803],[32.04639,46.48894],[32.07888,46.49923],[32.12638,46.49866],[32.1647,46.48953],[32.2085,46.47816],[32.23693,46.48028],[32.25644,46.4772],[32.3021,46.4678],[32.34392,46.46249],[32.4013,46.47199],[32.41764,46.47946],[32.41784,46.48504],[32.42826,46.48539],[32.43168,46.48919],[32.43269,46.49476],[32.43772,46.50336],[32.44832,46.50287],[32.45707,46.50381],[32.46478,46.50806],[32.48913,46.52738],[32.50026,46.53345],[32.5057,46.53796],[32.50899,46.54001],[32.51458,46.54101],[32.52069,46.54036],[32.53186,46.53687],[32.53755,46.53806],[32.5538,46.54127],[32.58233,46.55513],[32.6665,46.58253],[32.69178,46.60126],[32.68908,46.60642],[32.67874,46.61415],[32.68446,46.62125],[32.71999,46.63176],[32.75112,46.63031],[32.76752,46.63558],[32.78439,46.62802],[32.79871,46.63212],[32.80358,46.64089],[32.81703,46.64589],[32.83363,46.65495],[32.84593,46.66328],[32.87011,46.68251],[32.87505,46.68684],[32.87996,46.68647],[32.88573,46.68905],[32.89102,46.6932],[32.89177,46.69824],[32.90531,46.71128],[32.92336,46.71833],[32.92856,46.71837],[32.93339,46.71721],[32.94278,46.7133],[32.95423,46.71154],[32.97985,46.71047],[32.99109,46.71454],[33.01958,46.71775],[33.02489,46.72457],[33.04052,46.72923],[33.04335,46.73723],[33.04417,46.73848],[33.04844,46.7376],[33.05417,46.73143],[33.06219,46.73226],[33.07331,46.7384],[33.08198,46.73801],[33.09041,46.74365],[33.10405,46.7475],[33.13206,46.75513],[33.13717,46.75576],[33.14019,46.75669],[33.14146,46.75937],[33.15335,46.76279],[33.19787,46.7675],[33.23988,46.76354],[33.25438,46.75257],[33.28631,46.7494],[33.3134,46.75148],[33.34016,46.75704],[33.3589,46.76402],[33.35744,46.76703],[33.37161,46.77573],[33.37056,46.77684],[33.37141,46.77714],[33.37247,46.77612],[33.37337,46.77649],[33.37718,46.77631],[33.38953,46.78273],[33.40294,46.7736],[33.47027,46.82096],[33.56347,46.81821],[33.6203,46.82903],[33.63746,46.84718],[33.63403,46.86626],[33.63382,46.89951],[33.65682,46.90468],[33.67845,46.90093],[33.68816,46.92045],[33.69561,46.95542],[33.69767,46.99513],[33.80232,47.05902],[33.84079,47.09852],[33.84995,47.13779],[33.90313,47.15998],[33.92981,47.17722],[33.94484,47.19725],[33.96786,47.21128],[33.98273,47.23066],[34.04223,47.41043],[34.04668,47.41765],[34.06487,47.42432],[34.11834,47.42057],[34.14572,47.42447],[34.19929,47.4121],[34.26968,47.43955],[34.2961,47.42869],[34.33491,47.447],[34.33837,47.46776],[34.37413,47.5072],[34.38695,47.51387],[34.40522,47.50076],[34.43584,47.49691],[34.50062,47.49967],[34.53314,47.53046],[34.54453,47.53271],[34.58625,47.52181],[34.59904,47.53467],[34.61803,47.54449],[34.62838,47.54583],[34.64207,47.54442],[34.6802,47.51073],[34.68941,47.49489],[34.70898,47.49058],[34.74915,47.4926],[34.7923,47.46775],[34.8252,47.4648],[34.85992,47.45125],[34.87418,47.44953],[34.87474,47.43756],[34.86337,47.42088],[34.88371,47.40612],[34.93544,47.39163],[34.96869,47.38923],[35.02882,47.41814],[35.04616,47.43776],[35.06243,47.44869],[35.10223,47.45104],[35.14866,47.44569],[35.20264,47.445],[35.26442,47.47391],[35.2808,47.47219],[35.27365,47.49372],[35.2809,47.5034],[35.29938,47.51098],[35.3135,47.51268],[35.32643,47.51682],[35.33472,47.52528],[35.33715,47.53016],[35.3319,47.54714],[35.32795,47.56391],[35.32641,47.56753],[35.34308,47.56957],[35.34907,47.57157],[35.34669,47.57784],[35.35997,47.5784],[35.37648,47.57917],[35.37793,47.56569],[35.39092,47.5653],[35.39124,47.56704],[35.40251,47.56718],[35.40322,47.55864],[35.39776,47.54665],[35.39731,47.54028],[35.40297,47.53764],[35.41928,47.53504],[35.43152,47.53758],[35.44914,47.54241],[35.46084,47.54069],[35.47711,47.54368],[35.48561,47.54491],[35.4863,47.54735],[35.48836,47.54778],[35.49378,47.54542],[35.49455,47.5441],[35.50453,47.54417],[35.50475,47.54663],[35.50827,47.54691],[35.50965,47.54423],[35.53618,47.54622],[35.53725,47.54368],[35.55494,47.54451],[35.57191,47.53857],[35.5903,47.52837],[35.59255,47.51932],[35.61313,47.5043],[35.61616,47.50431],[35.6165,47.50624],[35.62118,47.50767],[35.62363,47.50585],[35.63694,47.51096],[35.64084,47.50749],[35.6329,47.50298],[35.63463,47.50049],[35.65466,47.50096],[35.67048,47.50221],[35.68706,47.50976],[35.69952,47.50685],[35.7115,47.50554],[35.71853,47.49479],[35.7316,47.49071],[35.74639,47.48989],[35.74514,47.48682],[35.78226,47.48567],[35.79068,47.48089],[35.79937,47.47352],[35.81808,47.46959],[35.84211,47.47099],[35.89611,47.46596],[35.91161,47.46892],[35.92149,47.47523],[35.92406,47.49473],[35.93259,47.4935],[35.94164,47.49389],[35.94089,47.51199],[35.9362,47.5233],[35.93677,47.52716],[35.94324,47.53013],[35.9497,47.5236],[35.96796,47.51757],[35.98968,47.51452],[35.99214,47.52324],[35.99445,47.52565],[35.99878,47.5257],[36.02078,47.5159],[36.03001,47.52229],[36.03168,47.52612],[36.06525,47.52684],[36.07253,47.55055],[36.06382,47.55287],[36.0642,47.56226],[36.0817,47.57055],[36.08967,47.58198],[36.0944,47.58593],[36.10849,47.58478],[36.10852,47.58992],[36.12392,47.59188],[36.12959,47.60294],[36.12399,47.61129],[36.12809,47.62141],[36.14036,47.63325],[36.1589,47.64249],[36.15418,47.65087],[36.15938,47.65304],[36.17195,47.64508],[36.17729,47.64322],[36.18279,47.63314],[36.19482,47.63712],[36.20386,47.64355],[36.20232,47.64835],[36.19555,47.65776],[36.17988,47.65799],[36.17193,47.66943],[36.19783,47.67797],[36.20094,47.68472],[36.1913,47.69579],[36.18501,47.69755],[36.15822,47.70111],[36.15288,47.71101],[36.17568,47.7143],[36.19007,47.71985],[36.19896,47.72874],[36.19505,47.75346],[36.19196,47.75773],[36.1906,47.76315],[36.20228,47.7651],[36.21056,47.77857],[36.23508,47.78758],[36.27144,47.78628],[36.30583,47.79143],[36.30291,47.80298],[36.34811,47.8057],[36.36816,47.79591],[36.38099,47.79511],[36.42562,47.80975],[36.45174,47.80728],[36.45511,47.82459],[36.49098,47.83039],[36.52565,47.84114],[36.57219,47.84909],[36.58236,47.86015],[36.58901,47.87397],[36.57402,47.89654],[36.62893,47.90374],[36.63675,47.91257],[36.6293,47.92106],[36.62102,47.92379],[36.60939,47.92479],[36.60571,47.93039],[36.60794,47.93742],[36.63615,47.93933],[36.66097,47.94367],[36.73217,47.9607],[36.74244,47.97461],[36.73554,48.00924],[36.74857,48.0267],[36.7636,48.03392],[36.76473,48.05498],[36.77619,48.06678],[36.80585,48.05953],[36.82626,48.06994],[36.83798,48.07157],[36.83774,48.07778],[36.84209,48.07813],[36.86343,48.08198],[36.87624,48.08334],[36.89316,48.08738],[36.89269,48.09512],[36.90153,48.09779],[36.90497,48.10384],[36.90306,48.11353],[36.91591,48.11383],[36.91222,48.12969],[36.90453,48.1348],[36.90663,48.1394],[36.9061,48.14338],[36.90701,48.16466],[36.91598,48.16669],[36.93585,48.18601],[36.93073,48.19625],[36.92721,48.2201],[36.95159,48.2206],[36.95183,48.23612],[36.94208,48.23762],[36.94195,48.2398],[36.97099,48.23845],[36.97292,48.24566],[36.98165,48.24886],[36.98064,48.25806],[36.98745,48.25915],[36.98834,48.26291],[36.99545,48.2634],[37.00307,48.26091],[37.00882,48.26105],[37.01045,48.25978],[37.01252,48.25993],[37.01808,48.24175],[37.03835,48.24438],[37.04049,48.24664],[37.04633,48.24976],[37.04609,48.25208],[37.05117,48.25514],[37.05032,48.26163],[37.05763,48.26376],[37.05438,48.28069],[37.10351,48.28705],[37.10235,48.29584],[37.08787,48.30245],[37.08621,48.31258],[37.06205,48.31782],[37.06282,48.32202],[37.05526,48.32107],[37.05301,48.32433],[37.05178,48.32901],[37.04744,48.32867],[37.0467,48.33202],[37.0501,48.33798],[37.03701,48.34886],[37.04084,48.34923],[37.06285,48.34002],[37.0675,48.34277],[37.06842,48.35137],[37.07069,48.35179],[37.07295,48.34857],[37.08623,48.34685],[37.10614,48.33993],[37.10515,48.34737],[37.12363,48.34884],[37.1433,48.35293],[37.1568,48.34807],[37.16139,48.35141],[37.18283,48.35341],[37.20219,48.35379],[37.20187,48.35596],[37.19391,48.36059],[37.19376,48.36777],[37.1894,48.36903],[37.18947,48.37186],[37.18678,48.37367],[37.18673,48.39364],[37.20468,48.39768],[37.21319,48.40149],[37.24056,48.40383],[37.23973,48.41116],[37.23461,48.41115],[37.23748,48.41507],[37.23265,48.41675],[37.23672,48.41941],[37.22632,48.42091],[37.2245,48.42468],[37.23579,48.42621],[37.2427,48.42682],[37.24207,48.43376],[37.24442,48.43392],[37.24397,48.43759],[37.24657,48.43822],[37.25002,48.44264],[37.24883,48.45344],[37.26933,48.45705],[37.27719,48.46406],[37.28533,48.46848],[37.29578,48.46988],[37.30784,48.47472],[37.31838,48.47393],[37.33935,48.47373],[37.36486,48.47782],[37.36741,48.48243],[37.37556,48.48428],[37.37512,48.48898],[37.38064,48.49339],[37.38833,48.49133],[37.39569,48.48586],[37.41897,48.48329],[37.44463,48.48472],[37.44617,48.49068],[37.45192,48.48477],[37.46604,48.47922],[37.46144,48.47367],[37.47405,48.45901],[37.48133,48.45671],[37.49135,48.45111],[37.50888,48.44483],[37.52442,48.44522],[37.58701,48.44412],[37.60452,48.44228],[37.61203,48.4434],[37.63848,48.45063],[37.63852,48.45482],[37.64808,48.45764],[37.64721,48.47034],[37.65056,48.47572],[37.64816,48.48974],[37.63676,48.49423],[37.63768,48.49591],[37.64717,48.49383],[37.65949,48.49519],[37.66469,48.50368],[37.67985,48.49569],[37.68634,48.49645],[37.68949,48.49192],[37.7002,48.4915],[37.71615,48.48442],[37.72649,48.47945],[37.74268,48.48121],[37.74852,48.47794],[37.76195,48.48311],[37.77997,48.49175],[37.76865,48.50018],[37.77381,48.51142],[37.76894,48.5184],[37.77088,48.52236],[37.75681,48.51932],[37.74513,48.52361],[37.74238,48.52994],[37.74463,48.53194],[37.74127,48.54089],[37.77026,48.5436],[37.79442,48.53862],[37.82243,48.54611],[37.83615,48.55242],[37.82884,48.56166],[37.82237,48.56485],[37.83037,48.57154],[37.82868,48.57718],[37.82467,48.58157],[37.82066,48.58473],[37.82111,48.58816],[37.81814,48.59059],[37.81754,48.59302],[37.80009,48.59099],[37.7845,48.58907],[37.78343,48.59563],[37.78622,48.59625],[37.78686,48.59739],[37.78342,48.59732],[37.78202,48.59913],[37.76184,48.60245],[37.75839,48.61561],[37.76311,48.61923],[37.77646,48.61981],[37.788,48.62353],[37.78467,48.63351],[37.79071,48.64597],[37.78724,48.65643],[37.80027,48.66385],[37.81171,48.66552],[37.80546,48.68008],[37.79663,48.67942],[37.78659,48.69076],[37.80335,48.69272],[37.80467,48.70104],[37.81037,48.70897],[37.81712,48.71914],[37.81928,48.71842],[37.81542,48.70932],[37.82516,48.70542],[37.83395,48.7064],[37.84416,48.70445],[37.85225,48.70082],[37.8589,48.7056],[37.85157,48.71118],[37.8393,48.71773],[37.83535,48.7215],[37.83046,48.72356],[37.83063,48.72826],[37.83344,48.73133],[37.83119,48.73412],[37.82147,48.73779],[37.8205,48.73975],[37.84337,48.73125],[37.84788,48.73437],[37.84537,48.73603],[37.85151,48.73719],[37.85106,48.74243],[37.84752,48.7453],[37.851,48.74796],[37.86272,48.75225],[37.85896,48.75398],[37.85453,48.75142],[37.84873,48.75044],[37.83833,48.75064],[37.8347,48.75206],[37.84443,48.75444],[37.83685,48.76226],[37.83326,48.76266],[37.83207,48.76554],[37.83897,48.76487],[37.85156,48.75819],[37.85854,48.75655],[37.86359,48.75909],[37.86912,48.7594],[37.87998,48.75773],[37.89041,48.76137],[37.89466,48.77177],[37.88083,48.77925],[37.87139,48.77989],[37.87063,48.78206],[37.87269,48.78265],[37.88128,48.78125],[37.89109,48.77829],[37.89956,48.77134],[37.92135,48.76929],[37.93022,48.77464],[37.95105,48.7814],[37.95676,48.79745],[37.95352,48.80023],[37.94903,48.80984],[37.94236,48.81105],[37.94025,48.81327],[37.93166,48.81278],[37.92994,48.81732],[37.93255,48.81936],[37.92794,48.83903],[37.91665,48.83982],[37.90716,48.83304],[37.89035,48.82677],[37.8598,48.81982],[37.85622,48.8197],[37.85779,48.82852],[37.8675,48.82773],[37.87055,48.83812],[37.87978,48.83903],[37.8751,48.84654],[37.89555,48.85143],[37.90702,48.85286],[37.91042,48.85914],[37.90838,48.86255],[37.89484,48.86269],[37.89205,48.86483],[37.90241,48.86573],[37.90779,48.87007],[37.89871,48.87537],[37.90121,48.87802],[37.90646,48.87774],[37.91037,48.87969],[37.91635,48.87961],[37.92694,48.88544],[37.93151,48.89091],[37.93225,48.89834],[37.92999,48.90051],[37.93705,48.90875],[37.94044,48.91877],[37.95486,48.92969],[37.9662,48.93781],[37.96533,48.94191],[37.95374,48.94595],[37.95024,48.94074],[37.93575,48.94132],[37.9338,48.93683],[37.93563,48.92732],[37.93071,48.91501],[37.91926,48.9124],[37.8816,48.92995],[37.87895,48.95145],[37.8829,48.95995],[37.92471,48.96596],[37.96698,48.96976],[37.96838,48.97654],[37.96544,48.98459],[37.97583,48.98647],[37.98064,48.9899],[37.96744,49.00218],[37.95642,49.00921],[37.94569,49.00908],[37.94045,49.01369],[37.93839,49.01929],[37.94156,49.01981],[37.94027,49.02342],[37.95123,49.02434],[37.96128,49.03336],[37.95489,49.03888],[37.9661,49.04827],[37.96811,49.06099],[37.95577,49.06782],[37.93557,49.07338],[37.91771,49.0818],[37.9009,49.08101],[37.88384,49.07753],[37.86952,49.07116],[37.86666,49.07219],[37.86619,49.07413],[37.86089,49.08141],[37.83998,49.07849],[37.8204,49.06987],[37.78359,49.07106],[37.74742,49.06316],[37.72204,49.06484],[37.71305,49.0691],[37.72074,49.08239],[37.72174,49.08838],[37.70693,49.08924],[37.68399,49.09426],[37.68182,49.09704],[37.6955,49.09964],[37.7103,49.10157],[37.71411,49.10225],[37.71511,49.10711],[37.70382,49.11027],[37.69646,49.10506],[37.67845,49.10531],[37.67895,49.1176],[37.68864,49.12824],[37.7004,49.13028],[37.70953,49.12687],[37.72408,49.13326],[37.7473,49.12972],[37.7536,49.13617],[37.7475,49.13799],[37.74568,49.14289],[37.74892,49.14743],[37.76448,49.16318],[37.76385,49.16681],[37.75001,49.17449],[37.74905,49.17869],[37.75534,49.18157],[37.75991,49.18563],[37.77654,49.18291],[37.78056,49.18523],[37.78394,49.18813],[37.79455,49.18567],[37.79479,49.18388],[37.80597,49.18085],[37.81442,49.1858],[37.83922,49.18605],[37.84228,49.1906],[37.8839,49.19281],[37.89268,49.2004],[37.88074,49.20809],[37.88347,49.21358],[37.88415,49.22047],[37.8783,49.22161],[37.8764,49.2261],[37.88753,49.22646],[37.89511,49.22601],[37.89831,49.22446],[37.91873,49.22681],[37.91559,49.24275],[37.91948,49.24585],[37.93556,49.23931],[37.95101,49.23638],[37.95649,49.24029],[37.94917,49.24172],[37.95026,49.24415],[37.95382,49.24544],[37.95003,49.24668],[37.95003,49.24791],[37.95592,49.24825],[37.96701,49.24389],[37.99788,49.25213],[38.0098,49.26151],[38.01402,49.26843],[38.00673,49.2739],[38.01292,49.28505],[38.00879,49.28801],[38.00259,49.28828],[37.99928,49.28581],[37.99785,49.28312],[37.98938,49.28359],[37.98373,49.28089],[37.97957,49.28225],[37.96772,49.28655],[37.96201,49.30327],[37.96961,49.30304],[37.96938,49.31115],[37.96158,49.31149],[37.96186,49.31732],[37.96639,49.32225],[37.96552,49.33028],[37.96494,49.33248],[37.96282,49.33417],[37.9573,49.33485],[37.95343,49.33662],[37.95005,49.3377],[37.94179,49.33884],[37.94233,49.34185],[37.94118,49.34457],[37.94387,49.3469],[37.94192,49.34969],[37.94763,49.3514],[37.94957,49.35312],[37.95431,49.36159],[37.94907,49.36271],[37.93852,49.3792],[37.93251,49.38069],[37.91607,49.37856],[37.91637,49.3828],[37.89061,49.38205],[37.87565,49.3776],[37.86223,49.38042],[37.84714,49.38127],[37.84664,49.38666],[37.82996,49.4012],[37.82396,49.39464],[37.81569,49.39096],[37.76893,49.40528],[37.76451,49.39738],[37.71151,49.41706],[37.68422,49.41218],[37.67674,49.42126],[37.7084,49.43078],[37.7125,49.44177],[37.74328,49.45993],[37.75793,49.45791],[37.77171,49.46824],[37.77835,49.48235],[37.74352,49.49108],[37.72893,49.502],[37.73375,49.51082],[37.72357,49.51462],[37.71327,49.51349],[37.7063,49.50739],[37.69763,49.5024],[37.69503,49.50269],[37.69672,49.50883],[37.70076,49.51486],[37.69697,49.52533],[37.69283,49.52689],[37.69532,49.53032],[37.69602,49.54114],[37.70085,49.54433],[37.70175,49.55293],[37.71537,49.55636],[37.73183,49.55717],[37.7596,49.55618],[37.76067,49.5592],[37.75384,49.56178],[37.75383,49.5635],[37.76125,49.56959],[37.77057,49.57214],[37.77216,49.57491],[37.79249,49.58029],[37.79633,49.59054],[37.79062,49.5922],[37.79089,49.59466],[37.80407,49.59433],[37.80302,49.60321],[37.78902,49.60315],[37.78794,49.6077],[37.80873,49.60789],[37.81669,49.61497],[37.81006,49.62418],[37.799,49.62737],[37.80122,49.6409],[37.77822,49.64268],[37.77844,49.65137],[37.75174,49.6544],[37.72858,49.65144],[37.72506,49.64215],[37.70832,49.64209],[37.70798,49.64874],[37.71674,49.654],[37.71726,49.65637],[37.71375,49.65868],[37.7123,49.66544],[37.73985,49.66835],[37.76741,49.66715],[37.77781,49.67318],[37.77087,49.68922],[37.7756,49.69538],[37.76957,49.70403],[37.77685,49.73272],[37.74944,49.74148],[37.73344,49.74014],[37.71929,49.73698],[37.70073,49.73697],[37.68537,49.74774],[37.67461,49.75475],[37.6692,49.75171],[37.66205,49.75168],[37.65577,49.75308],[37.64665,49.75888],[37.63812,49.77389],[37.62327,49.77672],[37.61125,49.78401],[37.6122,49.79171],[37.6057,49.79574],[37.60525,49.80215],[37.60013,49.80926],[37.60051,49.81177],[37.60976,49.81587],[37.61571,49.82345],[37.61708,49.82479],[37.62823,49.82806],[37.62943,49.83053],[37.63339,49.84098],[37.63229,49.85088],[37.63414,49.85167],[37.64791,49.85135],[37.64791,49.85795],[37.63646,49.86277],[37.64069,49.86897],[37.65001,49.87154],[37.64962,49.89078],[37.65537,49.88958],[37.66352,49.88254],[37.67793,49.88244],[37.68289,49.88881],[37.69402,49.89102],[37.69664,49.89027],[37.70199,49.89014],[37.70823,49.89262],[37.73293,49.90052],[37.73852,49.89771],[37.74435,49.90055],[37.74924,49.90827],[37.74718,49.91257],[37.75353,49.91356],[37.76859,49.91258],[37.77112,49.91348],[37.77502,49.92152],[37.77371,49.92933],[37.75274,49.93996],[37.74891,49.9532],[37.7349,49.95601],[37.72729,49.961],[37.73473,49.96604],[37.75069,49.97217],[37.76176,49.96975],[37.76827,49.97985],[37.77599,49.98212],[37.78042,49.99381],[37.77845,50.00577],[37.77563,50.0227],[37.76493,50.03895],[37.76317,50.04008],[37.76249,50.05043],[37.76992,50.05477],[37.76826,50.05801],[37.76316,50.06158],[37.75804,50.06369],[37.75814,50.0658],[37.76238,50.06675],[37.76286,50.06892],[37.75146,50.0703],[37.74162,50.06924],[37.73223,50.07281],[37.73313,50.08012],[37.72327,50.0824],[37.71693,50.08587],[37.70699,50.08663],[37.70881,50.09058],[37.69904,50.09339],[37.68912,50.09198],[37.68557,50.09044],[37.68097,50.091],[37.67624,50.08793],[37.67209,50.08266],[37.66351,50.09951],[37.6654,50.10094],[37.66213,50.10799],[37.65681,50.11657],[37.65098,50.11894],[37.65656,50.12857],[37.6617,50.13165],[37.66316,50.14012],[37.65286,50.14486],[37.64703,50.14244],[37.63647,50.14034],[37.62694,50.13737],[37.61785,50.13781],[37.60351,50.14848],[37.60489,50.15926],[37.61561,50.16531],[37.62763,50.1674],[37.62626,50.17642],[37.63913,50.17873],[37.64342,50.17433],[37.64703,50.17455],[37.65733,50.16432],[37.66883,50.15266],[37.68479,50.14596],[37.69441,50.14035],[37.70076,50.13418],[37.70883,50.13396],[37.70763,50.12769],[37.71329,50.12153],[37.72626,50.10672],[37.7337,50.10285],[37.74406,50.0937],[37.75568,50.07848],[37.79761,50.08424],[37.8184,50.07184],[37.82929,50.06656],[37.85541,50.05757],[37.86308,50.05473],[37.87659,50.05333],[37.89391,50.05031],[37.92673,50.03425],[37.93012,50.0274],[37.93944,50.01558],[37.96581,49.9793],[37.98056,49.97679],[37.99907,49.9636],[38.00537,49.96724],[38.04369,49.9329],[38.02094,49.92581],[38.03278,49.90005],[38.05646,49.92325],[38.12499,49.94255],[38.12668,49.92215],[38.17157,49.9419],[38.1624,49.9515],[38.19633,49.96976],[38.21713,49.98718],[38.18582,50.02255],[38.18882,50.033],[38.18383,50.04583],[38.18507,50.05569],[38.17857,50.07997],[38.27569,50.07312],[38.29131,50.07918],[38.30115,50.08714],[38.3132,50.08834],[38.32944,50.08551],[38.33398,50.05909],[38.3512,50.03474],[38.35416,50.01905],[38.34958,50.00644],[38.39756,49.99059],[38.41601,49.98134],[38.43409,50.00102],[38.46804,49.99525],[38.46591,49.98396],[38.47752,49.98327],[38.48771,49.9636],[38.5079,49.96403],[38.52672,49.95827],[38.58157,49.97742],[38.61608,49.97439],[38.6462,49.95594],[38.66694,49.97216],[38.67973,49.97449],[38.67605,49.99281],[38.67905,50.00545],[38.68755,50.00815],[38.71514,49.98771],[38.71531,49.98238],[38.6853,49.96034],[38.6929,49.93477],[38.72325,49.92701],[38.73385,49.90503],[38.74385,49.89731],[38.76823,49.89604],[38.77768,49.88532],[38.79015,49.87851],[38.79496,49.88331],[38.83202,49.8767],[38.83635,49.86737],[38.8491,49.8651],[38.85671,49.86914],[38.8694,49.86449],[38.87642,49.86942],[38.89847,49.87042],[38.90934,49.8601],[38.91865,49.8579],[38.90505,49.84915],[38.91222,49.84432],[38.91057,49.83328],[38.91366,49.82979],[38.90739,49.82841],[38.90937,49.81917],[38.91912,49.81466],[38.91616,49.81272],[38.92036,49.80495],[38.9287,49.80389],[38.93075,49.79717],[38.94035,49.80089],[38.94909,49.7961],[38.97114,49.80722],[38.98491,49.80778],[39.02567,49.82248],[39.06623,49.81535],[39.06976,49.81873],[39.11037,49.83777],[39.13074,49.86157],[39.1784,49.888],[39.18839,49.88622],[39.22566,49.84018],[39.22811,49.8165],[39.25037,49.7778],[39.26464,49.76848],[39.27547,49.76803],[39.28556,49.75567],[39.30792,49.75304],[39.37696,49.73842],[39.41206,49.75311],[39.4382,49.76001],[39.47876,49.75648],[39.53384,49.74085],[39.61011,49.7338],[39.59136,49.71913],[39.6133,49.69136],[39.63838,49.6351],[39.66,49.61481],[39.75023,49.59672],[39.80531,49.55805],[39.89022,49.55836],[39.93513,49.57399],[39.95195,49.59747],[40.05673,49.60657],[40.06354,49.59923],[40.13526,49.61625],[40.16844,49.56892],[40.0376,49.51989],[40.04176,49.4991],[40.02919,49.4536],[40.06027,49.43587],[40.07812,49.41019],[40.10563,49.39129],[40.13683,49.38181],[40.1626,49.36784],[40.1598,49.36602],[40.17018,49.3564],[40.17643,49.35662],[40.19681,49.34523],[40.18853,49.30744],[40.18404,49.30398],[40.18574,49.28429],[40.21926,49.26517],[40.21437,49.24489],[40.18823,49.23863],[40.13723,49.23989],[40.10829,49.21088],[40.07613,49.18683],[40.03157,49.18024],[39.97211,49.12449],[39.93817,49.0828],[39.94253,49.07135],[39.93795,49.05628],[39.91026,49.05746],[39.8803,49.06432],[39.80314,49.0592],[39.7681,49.03989],[39.69337,49.05054],[39.67232,49.04057],[39.68358,49.03692],[39.68174,49.02873],[39.67566,49.02689],[39.67366,49.01493],[39.6792,49.01289],[39.67028,49.00315],[39.66341,49.00087],[39.67693,48.98954],[39.69929,49.00097],[39.71677,48.98707],[39.71762,48.98235],[39.73038,48.9782],[39.74727,48.98741],[39.75208,48.98659],[39.74841,48.97927],[39.77671,48.95268],[39.78237,48.91575],[39.82267,48.90324],[39.82377,48.88886],[39.83537,48.89209],[39.83496,48.90096],[39.8458,48.90291],[39.85316,48.89074],[39.92434,48.89572],[39.95683,48.87388],[39.99343,48.86829],[40.00398,48.90079],[40.03119,48.9158],[40.06133,48.90886],[40.07883,48.86987],[39.9764,48.7939],[39.94751,48.79648],[39.88598,48.82156],[39.82989,48.83214],[39.8075,48.83858],[39.80804,48.83948],[39.80467,48.84358],[39.79713,48.84058],[39.78585,48.79916],[39.78019,48.78608],[39.77349,48.78442],[39.76545,48.77808],[39.77016,48.76701],[39.76343,48.76279],[39.7553,48.76798],[39.74008,48.76642],[39.73638,48.75218],[39.74028,48.74431],[39.73731,48.74319],[39.73219,48.74433],[39.73165,48.7421],[39.72501,48.74045],[39.72662,48.72937],[39.71226,48.71592],[39.71788,48.70336],[39.72021,48.6972],[39.71596,48.69521],[39.71883,48.69332],[39.71668,48.68993],[39.72255,48.68496],[39.72199,48.68273],[39.7142,48.68023],[39.71211,48.67465],[39.70403,48.67148],[39.70172,48.6694],[39.70458,48.66662],[39.71096,48.66807],[39.71106,48.65479],[39.69371,48.64941],[39.69153,48.64496],[39.69454,48.64219],[39.6945,48.63648],[39.66799,48.62131],[39.66145,48.6109],[39.66494,48.60525],[39.67109,48.60487],[39.67094,48.60322],[39.66816,48.60131],[39.66957,48.59594],[39.67893,48.59829],[39.68727,48.58708],[39.69163,48.58638],[39.69776,48.58716],[39.70255,48.58778],[39.71489,48.58525],[39.72124,48.58483],[39.72338,48.58622],[39.72625,48.58662],[39.73018,48.58592],[39.73463,48.58585],[39.73874,48.58684],[39.74432,48.59006],[39.74672,48.59067],[39.74904,48.59024],[39.75105,48.58884],[39.75055,48.58334],[39.75129,48.58209],[39.75476,48.583],[39.77037,48.58799],[39.77206,48.5916],[39.77343,48.59233],[39.78999,48.59337],[39.79612,48.59185],[39.80022,48.58955],[39.8045,48.58545],[39.80861,48.58397],[39.81285,48.58385],[39.82236,48.58664],[39.82505,48.58615],[39.82631,48.58421],[39.82548,48.58165],[39.8206,48.57928],[39.82169,48.57833],[39.84683,48.57293],[39.85763,48.56141],[39.85453,48.553],[39.85804,48.54537],[39.85749,48.5374],[39.86676,48.50888],[39.86613,48.50478],[39.86188,48.50192],[39.85666,48.50164],[39.85319,48.50343],[39.84871,48.50284],[39.84647,48.49931],[39.84788,48.49511],[39.84775,48.48568],[39.84634,48.47371],[39.85775,48.46336],[39.89733,48.44811],[39.89856,48.44597],[39.89677,48.44422],[39.88986,48.44357],[39.88882,48.44199],[39.89593,48.42924],[39.9103,48.42196],[39.91276,48.41558],[39.90648,48.40749],[39.90631,48.40356],[39.90846,48.40205],[39.91605,48.40061],[39.91864,48.39761],[39.91741,48.39481],[39.90674,48.39227],[39.90596,48.39032],[39.9078,48.38871],[39.91456,48.38683],[39.91631,48.38423],[39.91752,48.37923],[39.92122,48.37593],[39.92685,48.37508],[39.93189,48.37693],[39.93527,48.3847],[39.93831,48.38756],[39.94154,48.38707],[39.94328,48.38379],[39.93475,48.37227],[39.93675,48.36714],[39.94067,48.36502],[39.93945,48.36077],[39.94442,48.35717],[39.94253,48.35496],[39.94751,48.35523],[39.94364,48.34812],[39.93073,48.34896],[39.9186,48.34721],[39.91858,48.34169],[39.87793,48.33407],[39.8597,48.33457],[39.84559,48.33277],[39.84522,48.3295],[39.84039,48.32912],[39.84189,48.31882],[39.84083,48.31039],[39.8589,48.30924],[39.88795,48.30943],[39.88784,48.30459],[39.90134,48.29433],[39.91003,48.29106],[39.90975,48.28753],[39.9111,48.28502],[39.91075,48.28291],[39.90938,48.28077],[39.91006,48.27901],[39.90843,48.27813],[39.90822,48.27701],[39.90951,48.27672],[39.90969,48.27601],[39.91042,48.27603],[39.91139,48.27527],[39.91225,48.27375],[39.91183,48.27277],[39.91059,48.27215],[39.91027,48.27164],[39.91114,48.27102],[39.91308,48.27119],[39.91407,48.27196],[39.91475,48.27189],[39.91505,48.27134],[39.91458,48.27076],[39.91426,48.26985],[39.91483,48.26968],[39.9175,48.27009],[39.91898,48.2706],[39.91966,48.2713],[39.92107,48.27166],[39.92296,48.27131],[39.92491,48.27148],[39.92597,48.27216],[39.9259,48.27297],[39.92563,48.27359],[39.92584,48.27397],[39.92729,48.27539],[39.92787,48.27658],[39.92964,48.27778],[39.9316,48.27799],[39.93288,48.27924],[39.93469,48.27907],[39.93498,48.27975],[39.93411,48.28073],[39.93218,48.28121],[39.93029,48.28238],[39.93016,48.28276],[39.93059,48.28328],[39.93211,48.28373],[39.93328,48.28375],[39.9341,48.28348],[39.93502,48.28377],[39.93621,48.28506],[39.93664,48.28689],[39.93702,48.28812],[39.93662,48.28996],[39.93688,48.29156],[39.9377,48.29223],[39.93852,48.29213],[39.94161,48.29285],[39.94372,48.29191],[39.94481,48.29203],[39.94596,48.29274],[39.94653,48.29378],[39.94723,48.29416],[39.94841,48.29429],[39.94843,48.2961],[39.94904,48.29671],[39.95074,48.29722],[39.95084,48.29773],[39.94962,48.29885],[39.94985,48.2994],[39.95196,48.30009],[39.95222,48.30104],[39.95177,48.30213],[39.95199,48.30239],[39.95172,48.30305],[39.95197,48.30355],[39.95298,48.30392],[39.95406,48.30401],[39.95561,48.30375],[39.95666,48.30318],[39.95682,48.30262],[39.95692,48.30148],[39.96374,48.30342],[39.96544,48.30468],[39.96581,48.30566],[39.96568,48.3064],[39.96638,48.30678],[39.96764,48.3068],[39.96874,48.30713],[39.97081,48.30708],[39.97127,48.3073],[39.97124,48.3078],[39.97079,48.30897],[39.97188,48.30972],[39.97103,48.31163],[39.97249,48.31297],[39.97442,48.31347],[39.9755,48.31432],[39.97762,48.31517],[39.9789,48.31571],[39.98031,48.31578],[39.98252,48.3157],[39.98418,48.31621],[39.98531,48.317],[39.98695,48.31751],[39.99081,48.31708],[39.99107,48.31658],[39.99099,48.31606],[39.99322,48.3136],[39.99392,48.30071],[39.99974,48.28929],[40.00965,48.27011],[40.01405,48.27013],[40.0157,48.2674],[40.01289,48.26614],[40.02078,48.25378],[40.00578,48.24103],[40.00956,48.22457],[40.00293,48.2233],[39.94262,48.22897],[39.93699,48.18035],[39.91011,48.17939],[39.90695,48.16876],[39.90736,48.14815],[39.87154,48.1162],[39.86858,48.07944],[39.8322,48.0665],[39.88589,48.04787],[39.87721,48.04138],[39.77966,48.03934],[39.78678,48.02503],[39.78508,48.02313],[39.79522,48.0107],[39.79769,48.00931],[39.803,48.00795],[39.80454,48.00646],[39.81097,48.00486],[39.81672,48.00146],[39.81652,48.00012],[39.81374,47.9985],[39.81377,47.9967],[39.81792,47.99478],[39.81618,47.9928],[39.81672,47.98454],[39.82303,47.98354],[39.8228,47.97953],[39.81985,47.97745],[39.81754,47.97665],[39.81512,47.97362],[39.81541,47.97087],[39.81984,47.96776],[39.82739,47.95083],[39.80589,47.95056],[39.80659,47.93367],[39.7939,47.9159],[39.79494,47.86683],[39.7625,47.87015],[39.76318,47.84654],[39.73791,47.82773],[39.56559,47.83656],[39.54217,47.82498],[39.53449,47.83253],[39.52031,47.82514],[39.47847,47.85947],[39.44625,47.85064],[39.43735,47.83983],[39.41253,47.8309],[39.39045,47.86619],[39.24173,47.86701],[39.23621,47.85395],[39.14968,47.84258],[39.10954,47.84275],[39.10939,47.85175],[39.08289,47.8516],[39.08278,47.86993],[38.8394,47.86425],[38.8351,47.81606],[38.78868,47.81597],[38.79816,47.77844],[38.78894,47.73701],[38.77087,47.72063],[38.77316,47.68576],[38.75407,47.68489],[38.73031,47.68036],[38.72912,47.69881],[38.6708,47.69895],[38.65921,47.70006],[38.65921,47.70005],[38.66562,47.69718],[38.66589,47.66942],[38.62927,47.66928],[38.62959,47.65334],[38.62009,47.64487],[38.45627,47.64425],[38.45669,47.617],[38.35012,47.61669],[38.35074,47.57621],[38.31097,47.57603],[38.31115,47.55362],[38.30511,47.54485],[38.2848,47.54447],[38.28491,47.50838],[38.29507,47.50806],[38.2941,47.49074],[38.2894,47.47675],[38.30202,47.47512],[38.30208,47.39287],[38.30041,47.39151],[38.28642,47.39148],[38.28649,47.37356],[38.25873,47.37335],[38.24556,47.36319],[38.24736,47.36174],[38.25046,47.35771],[38.24679,47.35144],[38.24024,47.34622],[38.23069,47.34317],[38.23049,47.3389],[38.22208,47.33285],[38.22579,47.33212],[38.22721,47.32971],[38.22147,47.32735],[38.22098,47.30538],[38.3363,47.30641],[38.33451,47.30141],[38.3282,47.3004],[38.32709,47.29901],[38.32755,47.29753],[38.33329,47.29698],[38.33374,47.29625],[38.33335,47.29213],[38.32969,47.28961],[38.32844,47.28481],[38.32577,47.2846],[38.32339,47.28113],[38.32719,47.27954],[38.32619,47.27748],[38.32763,47.27668],[38.33081,47.27593],[38.33373,47.26894],[38.33329,47.26827],[38.32914,47.2665],[38.331,47.26458],[38.33078,47.26345],[38.32449,47.25682],[38.28804,47.2565],[38.28819,47.23856],[38.2605,47.23832],[38.25354,47.23362],[38.2477,47.23342],[38.24609,47.23411],[38.24277,47.23268],[38.24165,47.23281],[38.24075,47.23215],[38.23989,47.23241],[38.23781,47.23204],[38.23735,47.23122],[38.23625,47.23082],[38.23512,47.2311],[38.23433,47.23099],[38.23291,47.22919],[38.23286,47.22841],[38.23367,47.22802],[38.23401,47.22711],[38.23387,47.2258],[38.23465,47.22541],[38.23615,47.22561],[38.23641,47.22541],[38.23627,47.2245],[38.23644,47.22426],[38.23852,47.22364],[38.23871,47.22322],[38.23826,47.22241],[38.23876,47.22174],[38.23976,47.22162],[38.24005,47.22136],[38.24008,47.22015],[38.2399,47.21992],[38.23983,47.21873],[38.24051,47.21834],[38.24129,47.21848],[38.24251,47.21781],[38.24279,47.21712],[38.24228,47.21621],[38.24228,47.2153],[38.24189,47.21484],[38.24154,47.21253],[38.24185,47.21217],[38.24122,47.21175],[38.24083,47.21086],[38.24115,47.21054],[38.24106,47.21011],[38.23966,47.20871],[38.23738,47.20839],[38.23478,47.20259],[38.23559,47.19613],[38.23631,47.13953],[38.23407,47.13555],[38.23191,47.12969],[38.22925,47.12709],[38.22845,47.12267],[38.23012,47.11941],[38.2115,47.10718],[38.18656,47.09371],[38.16327,47.06546],[38.08499,47.02042],[38.08041,47.02654],[38.10605,47.04718],[38.1318,47.05373],[38.13283,47.06402],[38.12287,47.08062],[38.10466,47.09563],[38.08885,47.10596],[38.06267,47.1108],[38.05433,47.1083],[38.04078,47.09626],[38.04001,47.09188],[38.03254,47.08907],[37.99306,47.099],[37.97588,47.09568],[37.97907,47.09281],[37.99023,47.09147],[37.98396,47.08358],[37.89547,47.11092],[37.87958,47.10667],[37.86217,47.10625],[37.83831,47.0997],[37.82199,47.09092],[37.79409,47.08381],[37.77439,47.08758],[37.71388,47.07986],[37.68589,47.08053],[37.68403,47.07671],[37.67581,47.07792],[37.62738,47.09413],[37.62046,47.0866],[37.57416,47.08536],[37.52855,47.07753],[37.47807,47.03143],[37.34189,46.89505],[37.30892,46.87012],[37.28557,46.8669],[37.28418,46.87255],[37.29785,46.87276],[37.32401,46.89182],[37.31617,46.91427],[37.28285,46.93735],[37.23816,46.95103],[37.03617,46.87065],[37.00613,46.8693],[36.89749,46.81093],[36.86852,46.76572],[36.83805,46.70579],[36.80499,46.65918],[36.76977,46.63222],[36.75035,46.63118],[36.74923,46.64305],[36.78761,46.66415],[36.81829,46.70213],[36.81088,46.73037],[36.7761,46.75426],[36.71106,46.78141],[36.53664,46.75858],[36.41496,46.72601],[36.3322,46.67703],[36.2328,46.5559],[36.1717,46.49818],[36.14314,46.50331],[36.15507,46.52795],[36.16651,46.52771],[36.19085,46.53471],[36.2599,46.61865],[36.22904,46.65053],[36.18988,46.66706],[36.11469,46.65664],[35.99361,46.66606],[35.87394,46.64566],[35.72399,46.58684],[35.62427,46.50434],[35.56572,46.47543],[35.45783,46.44126],[35.36024,46.35469],[35.26587,46.25089],[35.18863,46.15147],[35.13361,46.11955],[35.06642,46.09939],[34.97819,46.07666],[34.99129,46.10459],[35.03083,46.12736],[35.02935,46.14502],[35.13683,46.16203],[35.20902,46.1904],[35.2532,46.2487],[35.29899,46.29901],[35.2943,46.30642],[35.30009,46.31449],[35.31744,46.31707],[35.33119,46.33116],[35.31792,46.33786],[35.3079,46.34832],[35.2898,46.35658],[35.2661,46.35555],[35.25495,46.40498],[35.26804,46.4322],[35.24645,46.4464],[35.21176,46.44704],[35.21827,46.43041],[35.19317,46.37095],[35.17836,46.36295],[35.138,46.34828],[35.11777,46.31427],[35.07986,46.27667],[35.02481,46.25633],[34.903,46.23642],[34.83378,46.20016],[34.83464,46.11556],[34.85247,46.00925],[34.89596,45.89884],[34.97705,45.76528],[35.05006,45.6672],[35.10987,45.59902],[35.20146,45.52334],[35.31126,45.41142]],[[37.5335,47.96622],[37.53349,47.96623],[37.53087,47.96339],[37.53088,47.96338],[37.532,47.96459],[37.5335,47.96622]]],[[[37.59884,50.22137],[37.56928,50.22982],[37.54458,50.23409],[37.53875,50.23587],[37.53979,50.23788],[37.57001,50.23683],[37.586,50.23913],[37.5886,50.2456],[37.60019,50.24053],[37.6269,50.2405],[37.61484,50.22237],[37.59884,50.22137]]],[[[37.49092,50.45739],[37.48449,50.445],[37.48417,50.43138],[37.46549,50.43087],[37.46243,50.4189],[37.44047,50.4336],[37.43252,50.44369],[37.44249,50.44702],[37.46907,50.45356],[37.47327,50.4557],[37.47686,50.45951],[37.49092,50.45739]]],[[[37.13838,50.36095],[37.14911,50.3559],[37.18034,50.36317],[37.16296,50.35194],[37.14336,50.34586],[37.13838,50.36095]]],[[[37.07512,50.33857],[37.08089,50.33948],[37.08041,50.34742],[37.08347,50.3476],[37.0832,50.33343],[37.07606,50.33218],[37.07313,50.3358],[37.07512,50.33857]]],[[[36.8208,50.31357],[36.82849,50.31283],[36.83336,50.31314],[36.85194,50.32759],[36.86263,50.33179],[36.87224,50.3357],[36.88216,50.33655],[36.91529,50.34629],[36.93765,50.35022],[36.95742,50.34918],[37.03299,50.34882],[37.03131,50.33909],[37.0381,50.33442],[37.04887,50.33568],[37.04826,50.33451],[37.04678,50.3339],[37.04898,50.33321],[37.04437,50.33134],[37.04059,50.32723],[37.0538,50.32257],[37.05302,50.31928],[37.04367,50.31752],[37.03422,50.31209],[37.0221,50.30632],[37.01306,50.30477],[37.00606,50.30166],[36.99802,50.30365],[36.98883,50.30107],[36.98167,50.30278],[36.97658,50.30114],[36.97386,50.29907],[36.97605,50.29744],[36.9624,50.29112],[36.94987,50.28782],[36.95487,50.27869],[36.95578,50.27453],[36.95145,50.27016],[36.94717,50.26299],[36.94263,50.26306],[36.94258,50.26535],[36.93558,50.26798],[36.93361,50.2675],[36.92858,50.2715],[36.9227,50.27945],[36.91511,50.28132],[36.89638,50.27467],[36.89673,50.26782],[36.90445,50.2684],[36.906,50.26732],[36.90806,50.26727],[36.90918,50.26417],[36.90905,50.26219],[36.90601,50.26235],[36.90538,50.26054],[36.89882,50.263],[36.89443,50.2582],[36.89399,50.25207],[36.89928,50.25407],[36.90023,50.25682],[36.90484,50.25686],[36.90864,50.25451],[36.90482,50.25196],[36.90423,50.24922],[36.8888,50.24823],[36.88094,50.25043],[36.86843,50.26005],[36.85593,50.25722],[36.8443,50.26423],[36.83778,50.26135],[36.83761,50.25883],[36.83314,50.25647],[36.82956,50.25416],[36.82342,50.24998],[36.82183,50.24955],[36.80851,50.24807],[36.78925,50.2458],[36.77223,50.25527],[36.75546,50.26029],[36.73977,50.26566],[36.72712,50.26779],[36.72013,50.27744],[36.72886,50.27733],[36.73994,50.28296],[36.74233,50.28162],[36.74489,50.28182],[36.74499,50.28068],[36.74878,50.28021],[36.74984,50.2809],[36.7507,50.283],[36.75027,50.28631],[36.74803,50.28722],[36.74794,50.28824],[36.75466,50.29052],[36.7607,50.28995],[36.76427,50.29197],[36.76836,50.30188],[36.80033,50.30602],[36.80394,50.30983],[36.8208,50.31357]]],[[[36.44032,50.31098],[36.47229,50.31316],[36.48765,50.31166],[36.48995,50.30992],[36.48969,50.30784],[36.49271,50.30452],[36.5007,50.29925],[36.51115,50.29537],[36.51276,50.29577],[36.51566,50.29591],[36.51636,50.29516],[36.52661,50.29347],[36.52609,50.29249],[36.52529,50.29206],[36.52514,50.29073],[36.52282,50.28914],[36.52392,50.28642],[36.55613,50.28137],[36.56079,50.28424],[36.57122,50.28575],[36.58293,50.28628],[36.58561,50.28589],[36.58857,50.28327],[36.58803,50.2817],[36.58955,50.27935],[36.59266,50.27808],[36.5926,50.27572],[36.57394,50.27504],[36.58037,50.26258],[36.57511,50.26067],[36.57789,50.25863],[36.57401,50.25527],[36.56865,50.25777],[36.55993,50.2508],[36.5692,50.24454],[36.5328,50.24242],[36.5054,50.23868],[36.48549,50.24221],[36.48103,50.24164],[36.46636,50.2514],[36.44825,50.25359],[36.44398,50.24834],[36.4233,50.25399],[36.41836,50.25687],[36.41592,50.25973],[36.40536,50.26113],[36.39007,50.2697],[36.36569,50.27183],[36.3638,50.28749],[36.37805,50.29377],[36.37393,50.30029],[36.40084,50.30717],[36.4093,50.31245],[36.42554,50.32827],[36.4337,50.33068],[36.44032,50.31098]]],[[[36.23034,50.37178],[36.23296,50.36425],[36.242,50.35838],[36.22385,50.35827],[36.21909,50.36496],[36.23034,50.37178]]],[[[36.20252,50.39621],[36.20758,50.39148],[36.20133,50.38924],[36.19834,50.39141],[36.19179,50.39038],[36.18767,50.39432],[36.18973,50.39848],[36.19891,50.40028],[36.20252,50.39621]]],[[[35.89591,50.4387],[35.9002,50.43902],[35.90114,50.43815],[35.90363,50.43809],[35.90475,50.43897],[35.90741,50.43788],[35.90921,50.43563],[35.9117,50.43471],[35.91925,50.4358],[35.9208,50.43738],[35.92389,50.43585],[35.92767,50.43487],[35.92818,50.43372],[35.93221,50.43197],[35.9323,50.43093],[35.93522,50.43011],[35.93762,50.43181],[35.93754,50.43339],[35.93934,50.43377],[35.94363,50.43339],[35.94131,50.43115],[35.93522,50.42874],[35.92758,50.43028],[35.92475,50.43164],[35.91295,50.43159],[35.90333,50.43394],[35.90402,50.435],[35.89754,50.43629],[35.89449,50.43563],[35.89009,50.43674],[35.88775,50.43751],[35.88921,50.43897],[35.89196,50.43815],[35.89419,50.43782],[35.89591,50.4387]]],[[[35.46215,50.70284],[35.46052,50.69676],[35.46379,50.69387],[35.4593,50.68943],[35.46422,50.68448],[35.47258,50.68018],[35.47552,50.68138],[35.48601,50.68046],[35.49649,50.67866],[35.48693,50.67061],[35.48926,50.65865],[35.48568,50.65584],[35.46274,50.66631],[35.42925,50.65574],[35.40949,50.65548],[35.41756,50.66367],[35.41759,50.67203],[35.41384,50.67898],[35.40595,50.68839],[35.40127,50.69855],[35.39205,50.69877],[35.38762,50.70388],[35.38849,50.70752],[35.39631,50.70731],[35.40818,50.70323],[35.42363,50.7078],[35.43195,50.71915],[35.42268,50.72736],[35.40869,50.73105],[35.40468,50.73727],[35.41151,50.74082],[35.42007,50.74045],[35.41789,50.74865],[35.41555,50.75891],[35.3938,50.78126],[35.39423,50.79187],[35.3823,50.79963],[35.37869,50.80755],[35.39533,50.81729],[35.39883,50.83586],[35.39277,50.83948],[35.39038,50.86577],[35.39731,50.86419],[35.40322,50.86521],[35.41125,50.85684],[35.41975,50.84162],[35.42018,50.8296],[35.41379,50.81675],[35.41015,50.80581],[35.41156,50.80241],[35.41611,50.79844],[35.43324,50.79453],[35.43476,50.79247],[35.45074,50.78279],[35.46234,50.78312],[35.47394,50.78518],[35.48914,50.77661],[35.47374,50.75517],[35.47675,50.7522],[35.47009,50.747],[35.47008,50.74428],[35.47385,50.74069],[35.47195,50.7372],[35.4638,50.73496],[35.47305,50.72529],[35.46756,50.71649],[35.46653,50.7085],[35.46267,50.70812],[35.45967,50.70453],[35.46215,50.70284]]],[[[35.35334,50.93227],[35.35459,50.93193],[35.35491,50.93108],[35.36432,50.93258],[35.37262,50.93246],[35.36591,50.92602],[35.37363,50.92342],[35.3876,50.92363],[35.39305,50.9247],[35.3928,50.91922],[35.40054,50.91479],[35.38886,50.9148],[35.37675,50.91956],[35.36272,50.91976],[35.3546,50.9161],[35.34719,50.91988],[35.34563,50.9256],[35.34097,50.92456],[35.33408,50.92763],[35.3318,50.93009],[35.33313,50.93449],[35.33945,50.93418],[35.34399,50.93548],[35.34543,50.93278],[35.34837,50.93285],[35.3475,50.93241],[35.34775,50.93194],[35.35038,50.93176],[35.35334,50.93227]]],[[[35.37588,51.01033],[35.37498,51.00879],[35.36854,51.00857],[35.36575,51.00736],[35.35803,51.00536],[35.35103,51.00617],[35.34841,51.00918],[35.35026,51.01106],[35.36725,51.01138],[35.37549,51.01203],[35.37588,51.01033]]],[[[35.34329,50.98758],[35.34882,50.97684],[35.35039,50.97623],[35.35196,50.97378],[35.34995,50.9718],[35.34851,50.97184],[35.34312,50.96735],[35.34236,50.96356],[35.33622,50.96307],[35.33465,50.9589],[35.33601,50.95852],[35.33574,50.95614],[35.33445,50.95582],[35.33198,50.95295],[35.32993,50.95181],[35.32956,50.94768],[35.32572,50.94677],[35.32014,50.94322],[35.31318,50.94475],[35.31531,50.94953],[35.30814,50.95321],[35.30013,50.9597],[35.30758,50.97668],[35.32214,50.98524],[35.33532,50.99056],[35.34068,50.98788],[35.34329,50.98758]]],[[[35.30379,51.07424],[35.30499,51.07629],[35.30319,51.07747],[35.30431,51.07888],[35.31169,51.07877],[35.31238,51.07731],[35.328,51.07704],[35.32585,51.07413],[35.328,51.07111],[35.32156,51.06696],[35.30568,51.06216],[35.2953,51.06345],[35.28689,51.06754],[35.30379,51.07424]]],[[[35.15646,51.10376],[35.15465,51.103],[35.15053,51.1064],[35.15448,51.11022],[35.16289,51.10958],[35.16375,51.10737],[35.16667,51.10575],[35.1641,51.10505],[35.16435,51.10074],[35.15646,51.10376]]],[[[34.95231,51.21911],[34.95271,51.22273],[34.95016,51.22497],[34.95001,51.22743],[34.95814,51.22869],[34.97615,51.23378],[34.97952,51.23589],[34.98278,51.23395],[34.98227,51.23202],[34.99377,51.2289],[34.99995,51.22922],[35.00458,51.2318],[35.00913,51.23183],[35.01231,51.23057],[35.01282,51.22868],[35.02166,51.22336],[35.02347,51.22051],[35.02836,51.21949],[35.03171,51.21976],[35.03789,51.21804],[35.03926,51.20406],[35.05188,51.20938],[35.06295,51.21589],[35.06334,51.2185],[35.06132,51.22293],[35.06904,51.23024],[35.07471,51.23196],[35.0849,51.23034],[35.10514,51.23278],[35.11761,51.22965],[35.11974,51.23148],[35.14998,51.22342],[35.14912,51.22105],[35.13711,51.21589],[35.13642,51.21008],[35.14294,51.20707],[35.14397,51.20234],[35.13024,51.19395],[35.13078,51.17371],[35.13441,51.1709],[35.12321,51.16536],[35.12652,51.15922],[35.13058,51.15655],[35.1375,51.15376],[35.14081,51.15118],[35.13531,51.1484],[35.13664,51.14413],[35.144,51.14059],[35.14391,51.13667],[35.14209,51.13361],[35.11595,51.12453],[35.09724,51.12783],[35.05505,51.11248],[35.04762,51.11281],[35.04767,51.11579],[35.04284,51.1165],[35.04148,51.11225],[35.03986,51.11038],[35.03741,51.1104],[35.0333,51.11353],[35.03056,51.11224],[35.03019,51.10878],[35.02829,51.10606],[35.0194,51.10688],[34.9996,51.10096],[34.9965,51.10256],[35.00541,51.10943],[34.97964,51.10882],[34.9731,51.10536],[34.97283,51.10859],[34.96531,51.11564],[34.9552,51.12202],[34.95453,51.12702],[34.93627,51.1308],[34.92747,51.14043],[34.91562,51.14291],[34.90206,51.12934],[34.88488,51.13874],[34.87831,51.12941],[34.86775,51.12259],[34.85176,51.1193],[34.84429,51.11685],[34.8351,51.11779],[34.8286,51.12229],[34.82614,51.12131],[34.8119,51.1293],[34.81483,51.13475],[34.80495,51.14294],[34.79866,51.1424],[34.78813,51.15231],[34.77177,51.15269],[34.75738,51.15098],[34.75192,51.16789],[34.74509,51.16679],[34.73712,51.1793],[34.75316,51.18089],[34.76216,51.17649],[34.77253,51.17467],[34.7792,51.17727],[34.78072,51.18095],[34.7843,51.18441],[34.78968,51.18212],[34.79032,51.18012],[34.80018,51.17558],[34.80866,51.17642],[34.80873,51.17285],[34.8134,51.17161],[34.81592,51.16939],[34.83483,51.16932],[34.83479,51.17828],[34.83315,51.18256],[34.84667,51.18919],[34.84577,51.1913],[34.86217,51.19899],[34.87041,51.19324],[34.87643,51.19121],[34.88336,51.19575],[34.89829,51.19327],[34.90563,51.20108],[34.90404,51.20341],[34.91185,51.20646],[34.92425,51.20523],[34.93013,51.20572],[34.93637,51.20832],[34.93936,51.21178],[34.94008,51.21794],[34.94491,51.21912],[34.95231,51.21911]]],[[[34.4009,51.27096],[34.40618,51.26868],[34.40301,51.26481],[34.38558,51.25944],[34.37906,51.27056],[34.38369,51.27378],[34.4009,51.27096]]],[[[34.36711,51.84871],[34.36952,51.845],[34.37415,51.845],[34.37924,51.84406],[34.37924,51.83982],[34.37194,51.83736],[34.35971,51.84201],[34.34593,51.84242],[34.34817,51.85165],[34.35357,51.85568],[34.35598,51.86082],[34.36385,51.85804],[34.36282,51.85518],[34.36763,51.85211],[34.36711,51.84871]]],[[[34.30372,51.71662],[34.30097,51.7121],[34.29918,51.7121],[34.29707,51.71695],[34.29971,51.72369],[34.30321,51.72383],[34.3051,51.72146],[34.30905,51.72016],[34.30372,51.71662]]],[[[31.52152,46.36697],[31.52768,46.36947],[31.53269,46.36963],[31.53513,46.36795],[31.53455,46.36154],[31.53603,46.35637],[31.53577,46.34742],[31.53637,46.33729],[31.53285,46.31933],[31.53586,46.30564],[31.54186,46.2901],[31.55233,46.27824],[31.56367,46.26809],[31.57689,46.26056],[31.59277,46.25302],[31.60984,46.24667],[31.62778,46.24519],[31.64589,46.24477],[31.67138,46.24993],[31.68082,46.24886],[31.67975,46.24444],[31.67423,46.24502],[31.66323,46.2418],[31.65593,46.23931],[31.65173,46.23575],[31.65563,46.23257],[31.66457,46.23022],[31.67712,46.22917],[31.69774,46.22374],[31.71102,46.22203],[31.76822,46.21232],[31.84978,46.19973],[31.9145,46.1883],[31.97489,46.1806],[32.00713,46.17686],[32.03286,46.17549],[32.04035,46.1736],[32.04098,46.17244],[32.04607,46.17289],[32.05025,46.1726],[32.05388,46.17053],[32.05906,46.17024],[32.06775,46.16816],[32.07782,46.1669],[32.08286,46.16737],[32.08271,46.16634],[32.07982,46.1655],[32.02221,46.17404],[31.98654,46.1783],[31.96614,46.18006],[31.9043,46.18821],[31.86031,46.19515],[31.70108,46.22179],[31.67375,46.22735],[31.63732,46.23421],[31.59096,46.25124],[31.56213,46.26691],[31.54049,46.28274],[31.52333,46.3019],[31.51852,46.3124],[31.51474,46.32129],[31.51371,46.33018],[31.51148,46.34926],[31.51611,46.36075],[31.52152,46.36697]]]]}}]}