{"type":"FeatureCollection","features":[{"type":"Feature","properties":{"name":"\uace8\ub808\uc2a4\ud0c4\u5dde","country_iso_a3":"IRN"},"geometry":{"type":"Point","coordinates":[54.8917,37.2822]}},{"type":"Feature","properties":{"name":"\uae38\ub780\u5dde","country_iso_a3":"IRN"},"geometry":{"type":"Point","coordinates":[48.97468,37.5057]}},{"type":"Feature","properties":{"name":"\ub3d9\uc544\uc81c\ub974\ubc14\uc774\uc794\u5dde","country_iso_a3":"IRN"},"geometry":{"type":"Point","coordinates":[46.52364,37.94159]}},{"type":"Feature","properties":{"name":"\ub85c\ub808\uc2a4\ud0c4\u5dde","country_iso_a3":"IRN"},"geometry":{"type":"Point","coordinates":[48.45224,33.48492]}},{"type":"Feature","properties":{"name":"\ub9c8\ub974\uce74\uc9c0\u5dde","country_iso_a3":"IRN"},"geometry":{"type":"Point","coordinates":[49.48442,34.59098]}},{"type":"Feature","properties":{"name":"\ub9c8\uc794\ub2e4\ub780\u5dde","country_iso_a3":"IRN"},"geometry":{"type":"Point","coordinates":[52.32273,36.39341]}},{"type":"Feature","properties":{"name":"\ubd80\uc170\ub974\u5dde","country_iso_a3":"IRN"},"geometry":{"type":"Point","coordinates":[51.48188,28.79025]}},{"type":"Feature","properties":{"name":"\uc11c\uc544\uc81c\ub974\ubc14\uc774\uc794\u5dde","country_iso_a3":"IRN"},"geometry":{"type":"Point","coordinates":[44.77556,37.87329]}},{"type":"Feature","properties":{"name":"\uc148\ub09c\u5dde","country_iso_a3":"IRN"},"geometry":{"type":"Point","coordinates":[55.00112,35.84089]}},{"type":"Feature","properties":{"name":"\uc2dc\uc2a4\ud0c4\uc624\ubc1c\ub8e8\uccb4\uc2a4\ud0c4\u5dde","country_iso_a3":"IRN"},"geometry":{"type":"Point","coordinates":[60.78212,28.25238]}},{"type":"Feature","properties":{"name":"\uc544\ub974\ub2e4\ube4c\u5dde","country_iso_a3":"IRN"},"geometry":{"type":"Point","coordinates":[47.93052,38.43205]}},{"type":"Feature","properties":{"name":"\uc54c\ubcf4\ub974\uc988\u5dde","country_iso_a3":"IRN"},"geometry":{"type":"Point","coordinates":[50.81282,35.94754]}},{"type":"Feature","properties":{"name":"\uc57c\uc988\ub4dc\u5dde","country_iso_a3":"IRN"},"geometry":{"type":"Point","coordinates":[55.51471,32.50005]}},{"type":"Feature","properties":{"name":"\uc774\uc2a4\ud30c\ud55c\u5dde","country_iso_a3":"IRN"},"geometry":{"type":"Point","coordinates":[51.47759,32.6641]}},{"type":"Feature","properties":{"name":"\uc77c\ub78c\u5dde","country_iso_a3":"IRN"},"geometry":{"type":"Point","coordinates":[46.83722,33.0769]}},{"type":"Feature","properties":{"name":"\uc794\uc794\u5dde","country_iso_a3":"IRN"},"geometry":{"type":"Point","coordinates":[48.5707,36.39313]}},{"type":"Feature","properties":{"name":"\ucc28\ud558\ub974\ub9c8\ud560\uc5d0\ubc14\ud750\ud2f0\uc544\ub9ac\u5dde","country_iso_a3":"IRN"},"geometry":{"type":"Point","coordinates":[50.70727,31.87504]}},{"type":"Feature","properties":{"name":"\uce74\uc988\ube48\u5dde","country_iso_a3":"IRN"},"geometry":{"type":"Point","coordinates":[50.00794,36.13702]}},{"type":"Feature","properties":{"name":"\ucf00\ub974\ub9cc\u5dde","country_iso_a3":"IRN"},"geometry":{"type":"Point","coordinates":[57.20863,29.02133]}},{"type":"Feature","properties":{"name":"\ucf00\ub974\ub9cc\uc0e4\u5dde","country_iso_a3":"IRN"},"geometry":{"type":"Point","coordinates":[46.72457,34.46384]}},{"type":"Feature","properties":{"name":"\ucf54\uae38\ub8e8\uc608\ubd80\uc608\ub974\uc544\ub9c8\ub4dc\u5dde","country_iso_a3":"IRN"},"geometry":{"type":"Point","coordinates":[50.88754,30.81532]}},{"type":"Feature","properties":{"name":"\ucf54\ub974\ub370\uc2a4\ud0c4\u5dde","country_iso_a3":"IRN"},"geometry":{"type":"Point","coordinates":[46.92072,35.6251]}},{"type":"Feature","properties":{"name":"\ucff0\u5dde","country_iso_a3":"IRN"},"geometry":{"type":"Point","coordinates":[50.98325,34.6476]}},{"type":"Feature","properties":{"name":"\ud14c\ud5e4\ub780\u5dde","country_iso_a3":"IRN"},"geometry":{"type":"Point","coordinates":[51.35697,35.48432]}},{"type":"Feature","properties":{"name":"\ud30c\ub974\uc2a4\u5dde","country_iso_a3":"IRN"},"geometry":{"type":"Point","coordinates":[53.13708,29.4205]}},{"type":"Feature","properties":{"name":"\ud558\ub9c8\ub2e8\u5dde","country_iso_a3":"IRN"},"geometry":{"type":"Point","coordinates":[48.4612,34.85712]}},{"type":"Feature","properties":{"name":"\ud638\ub77c\uc0b0\uc5d0\ub77c\uc790\ube44\u5dde","country_iso_a3":"IRN"},"geometry":{"type":"Point","coordinates":[59.02605,35.32615]}},{"type":"Feature","properties":{"name":"\ud638\ub77c\uc0b0\uc5d0\uc1fc\ub9d0\ub9ac\u5dde","country_iso_a3":"IRN"},"geometry":{"type":"Point","coordinates":[57.07843,37.4645]}},{"type":"Feature","properties":{"name":"\ud638\ub77c\uc0b0\uc5d0\uc870\ub204\ube44\u5dde","country_iso_a3":"IRN"},"geometry":{"type":"Point","coordinates":[59.51471,32.32506]}},{"type":"Feature","properties":{"name":"\ud638\ub974\ubaa8\uc988\uac04\u5dde","country_iso_a3":"IRN"},"geometry":{"type":"Point","coordinates":[55.08557,27.17713]}},{"type":"Feature","properties":{"name":"\ud6c4\uc81c\uc2a4\ud0c4\u5dde","country_iso_a3":"IRN"},"geometry":{"type":"Point","coordinates":[49.00515,31.51205]}},{"type":"Feature","properties":{"name":"\ub098\uc790\ud504\u5dde","country_iso_a3":"IRQ"},"geometry":{"type":"Point","coordinates":[43.85899,31.10726]}},{"type":"Feature","properties":{"name":"\ub2c8\ub098\uc640\u5dde","country_iso_a3":"IRQ"},"geometry":{"type":"Point","coordinates":[42.34695,36.02121]}},{"type":"Feature","properties":{"name":"\ub2e4\ud6c4\ud06c\u5dde","country_iso_a3":"IRQ"},"geometry":{"type":"Point","coordinates":[43.01572,37.03268]}},{"type":"Feature","properties":{"name":"\ub514\uc584\ub77c\u5dde","country_iso_a3":"IRQ"},"geometry":{"type":"Point","coordinates":[44.87759,34.05408]}},{"type":"Feature","properties":{"name":"\ub514\uce74\ub974\u5dde","country_iso_a3":"IRQ"},"geometry":{"type":"Point","coordinates":[46.25486,31.25924]}},{"type":"Feature","properties":{"name":"\ub9c8\uc774\uc0b0\u5dde","country_iso_a3":"IRQ"},"geometry":{"type":"Point","coordinates":[47.01709,31.97483]}},{"type":"Feature","properties":{"name":"\ubb34\ud0c4\ub098\u5dde","country_iso_a3":"IRQ"},"geometry":{"type":"Point","coordinates":[45.37587,30.40605]}},{"type":"Feature","properties":{"name":"\ubc14\uadf8\ub2e4\ub4dc\u5dde","country_iso_a3":"IRQ"},"geometry":{"type":"Point","coordinates":[44.38336,33.30622]}},{"type":"Feature","properties":{"name":"\ubc14\ube4c\u5dde","country_iso_a3":"IRQ"},"geometry":{"type":"Point","coordinates":[44.60952,32.64974]}},{"type":"Feature","properties":{"name":"\ubc14\uc2a4\ub77c\u5dde","country_iso_a3":"IRQ"},"geometry":{"type":"Point","coordinates":[47.29644,30.2]}},{"type":"Feature","properties":{"name":"\uc0b4\ub77c\ub518\u5dde","country_iso_a3":"IRQ"},"geometry":{"type":"Point","coordinates":[43.62534,34.57797]}},{"type":"Feature","properties":{"name":"\uc220\ub77c\uc774\ub9c8\ub2c8\uc57c\u5dde","country_iso_a3":"IRQ"},"geometry":{"type":"Point","coordinates":[45.36421,35.5149]}},{"type":"Feature","properties":{"name":"\uc544\ub974\ube4c\u5dde","country_iso_a3":"IRQ"},"geometry":{"type":"Point","coordinates":[44.16363,36.37087]}},{"type":"Feature","properties":{"name":"\uc548\ubc14\ub974\u5dde","country_iso_a3":"IRQ"},"geometry":{"type":"Point","coordinates":[41.4854,32.9926]}},{"type":"Feature","properties":{"name":"\uc640\uc2dc\ud2b8\u5dde","country_iso_a3":"IRQ"},"geometry":{"type":"Point","coordinates":[45.73542,32.7201]}},{"type":"Feature","properties":{"name":"\uce74\ub514\uc2dc\uc57c\u5dde","country_iso_a3":"IRQ"},"geometry":{"type":"Point","coordinates":[45.12852,31.84967]}},{"type":"Feature","properties":{"name":"\uce74\ub974\ubc1c\ub77c\u5dde","country_iso_a3":"IRQ"},"geometry":{"type":"Point","coordinates":[43.7726,32.48831]}},{"type":"Feature","properties":{"name":"\ud0a4\ub974\ucfe0\ud06c\u5dde","country_iso_a3":"IRQ"},"geometry":{"type":"Point","coordinates":[44.05543,35.29971]}},{"type":"Feature","properties":{"name":"\ub0a8\ubd80\u5dde","country_iso_a3":"ISR"},"geometry":{"type":"Point","coordinates":[34.86948,30.70034]}},{"type":"Feature","properties":{"name":"\ubd81\ubd80\u5dde","country_iso_a3":"ISR"},"geometry":{"type":"Point","coordinates":[35.47043,32.86041]}},{"type":"Feature","properties":{"name":"\uc608\ub8e8\uc0b4\ub818\u5dde","country_iso_a3":"ISR"},"geometry":{"type":"Point","coordinates":[35.06591,31.74373]}},{"type":"Feature","properties":{"name":"\uc911\ubd80\u5dde","country_iso_a3":"ISR"},"geometry":{"type":"Point","coordinates":[34.91449,32.08734]}},{"type":"Feature","properties":{"name":"\ud154\uc544\ube44\ube0c\u5dde","country_iso_a3":"ISR"},"geometry":{"type":"Point","coordinates":[34.80979,32.09782]}},{"type":"Feature","properties":{"name":"\ud558\uc774\ud30c\u5dde","country_iso_a3":"ISR"},"geometry":{"type":"Point","coordinates":[34.9796,32.63705]}},{"type":"Feature","properties":{"name":"\ub098\ubc14\ud2f0\uc608\u5dde","country_iso_a3":"LBN"},"geometry":{"type":"Point","coordinates":[35.48411,33.27824]}},{"type":"Feature","properties":{"name":"\ub0a8\ubd80\u5dde","country_iso_a3":"LBN"},"geometry":{"type":"Point","coordinates":[35.29335,33.34054]}},{"type":"Feature","properties":{"name":"\ub808\ubc14\ub17c\uc0b0\ub9e5\u5dde","country_iso_a3":"LBN"},"geometry":{"type":"Point","coordinates":[35.67143,33.86315]}},{"type":"Feature","properties":{"name":"\ubca0\uc774\ub8e8\ud2b8\u5dde","country_iso_a3":"LBN"},"geometry":{"type":"Point","coordinates":[35.50995,33.88906]}},{"type":"Feature","properties":{"name":"\ubca0\uce74\u5dde","country_iso_a3":"LBN"},"geometry":{"type":"Point","coordinates":[36.11378,33.96109]}},{"type":"Feature","properties":{"name":"\ubd81\ubd80\u5dde","country_iso_a3":"LBN"},"geometry":{"type":"Point","coordinates":[36.02143,34.41661]}},{"type":"Feature","properties":{"name":"\ub098\uc77c\u5dde","country_iso_a3":"SDN"},"geometry":{"type":"Point","coordinates":[32.98269,19.19269]}},{"type":"Feature","properties":{"name":"\ub0a8\ub2e4\ub974\ud478\ub974\u5dde","country_iso_a3":"SDN"},"geometry":{"type":"Point","coordinates":[24.44235,10.95622]}},{"type":"Feature","properties":{"name":"\ub0a8\ucfe0\ub974\ub450\ud310\u5dde","country_iso_a3":"SDN"},"geometry":{"type":"Point","coordinates":[29.84185,11.02544]}},{"type":"Feature","properties":{"name":"\ub3d9\ub2e4\ub974\ud478\ub974\u5dde","country_iso_a3":"SDN"},"geometry":{"type":"Point","coordinates":[26.35916,11.28768]}},{"type":"Feature","properties":{"name":"\ubc31\ub098\uc77c\u5dde","country_iso_a3":"SDN"},"geometry":{"type":"Point","coordinates":[32.26339,13.60042]}},{"type":"Feature","properties":{"name":"\ubd81\ub2e4\ub974\ud478\ub974\u5dde","country_iso_a3":"SDN"},"geometry":{"type":"Point","coordinates":[25.50011,15.94952]}},{"type":"Feature","properties":{"name":"\ubd81\ubd80\u5dde","country_iso_a3":"SDN"},"geometry":{"type":"Point","coordinates":[29.85719,19.45943]}},{"type":"Feature","properties":{"name":"\ubd81\ucfe0\ub974\ub450\ud310\u5dde","country_iso_a3":"SDN"},"geometry":{"type":"Point","coordinates":[29.52415,14.01652]}},{"type":"Feature","properties":{"name":"\uc11c\ub2e4\ub974\ud478\ub974\u5dde","country_iso_a3":"SDN"},"geometry":{"type":"Point","coordinates":[22.91476,13.91437]}},{"type":"Feature","properties":{"name":"\uc13c\ub098\ub974\u5dde","country_iso_a3":"SDN"},"geometry":{"type":"Point","coordinates":[34.03566,12.95608]}},{"type":"Feature","properties":{"name":"\uc54c\uc790\uc9c0\ub77c\u5dde","country_iso_a3":"SDN"},"geometry":{"type":"Point","coordinates":[33.29635,14.47036]}},{"type":"Feature","properties":{"name":"\uc54c\uce74\ub2e4\ub9ac\ud504\u5dde","country_iso_a3":"SDN"},"geometry":{"type":"Point","coordinates":[35.21038,14.18844]}},{"type":"Feature","properties":{"name":"\uc911\uc559\ub2e4\ub974\ud478\ub974\u5dde","country_iso_a3":"SDN"},"geometry":{"type":"Point","coordinates":[23.31364,12.17471]}},{"type":"Feature","properties":{"name":"\uccad\ub098\uc77c\u5dde","country_iso_a3":"SDN"},"geometry":{"type":"Point","coordinates":[34.08965,11.05961]}},{"type":"Feature","properties":{"name":"\uce74\uc0b4\ub77c\u5dde","country_iso_a3":"SDN"},"geometry":{"type":"Point","coordinates":[35.50042,15.91643]}},{"type":"Feature","properties":{"name":"\ud558\ub974\ud23c\u5dde","country_iso_a3":"SDN"},"geometry":{"type":"Point","coordinates":[32.79879,15.92334]}},{"type":"Feature","properties":{"name":"\ud64d\ud574\u5dde","country_iso_a3":"SDN"},"geometry":{"type":"Point","coordinates":[35.46342,19.4916]}},{"type":"Feature","properties":{"name":"\ub3c4\ub124\uce20\ud06c\u5dde","country_iso_a3":"UKR"},"geometry":{"type":"Point","coordinates":[37.8394,48.0541]}},{"type":"Feature","properties":{"name":"\ub4dc\ub2c8\ud504\ub85c\ud398\ud2b8\ub85c\uc6b0\uc2a4\ud06c\u5dde","country_iso_a3":"UKR"},"geometry":{"type":"Point","coordinates":[35.15515,48.32823]}},{"type":"Feature","properties":{"name":"\ub8e8\ud55c\uc2a4\ud06c\u5dde","country_iso_a3":"UKR"},"geometry":{"type":"Point","coordinates":[38.87769,48.9439]}},{"type":"Feature","properties":{"name":"\ub9ac\ube44\uc6b0\u5dde","country_iso_a3":"UKR"},"geometry":{"type":"Point","coordinates":[23.89822,49.68451]}},{"type":"Feature","properties":{"name":"\ub9ac\uc6b0\ub124\u5dde","country_iso_a3":"UKR"},"geometry":{"type":"Point","coordinates":[26.64762,50.97284]}},{"type":"Feature","properties":{"name":"\ubbf8\ucf5c\ub77c\uc774\uc6b0\u5dde","country_iso_a3":"UKR"},"geometry":{"type":"Point","coordinates":[31.93337,47.41044]}},{"type":"Feature","properties":{"name":"\ubcfc\ub9b0\u5dde","country_iso_a3":"UKR"},"geometry":{"type":"Point","coordinates":[24.93391,51.12352]}},{"type":"Feature","properties":{"name":"\ube48\ub2c8\ucc28\u5dde","country_iso_a3":"UKR"},"geometry":{"type":"Point","coordinates":[28.51242,48.94608]}},{"type":"Feature","properties":{"name":"\uc218\ubbf8\u5dde","country_iso_a3":"UKR"},"geometry":{"type":"Point","coordinates":[33.63816,51.23376]}},{"type":"Feature","properties":{"name":"\uc624\ub370\uc0ac\u5dde","country_iso_a3":"UKR"},"geometry":{"type":"Point","coordinates":[30.34886,47.17513]}},{"type":"Feature","properties":{"name":"\uc774\ubc14\ub178\ud504\ub780\ud0a4\uc6b0\uc2a4\ud06c\u5dde","country_iso_a3":"UKR"},"geometry":{"type":"Point","coordinates":[24.67419,48.62486]}},{"type":"Feature","properties":{"name":"\uc790\uce74\ub974\ud30c\ud0f8\u5dde","country_iso_a3":"UKR"},"geometry":{"type":"Point","coordinates":[23.02928,48.49168]}},{"type":"Feature","properties":{"name":"\uc790\ud3ec\ub9ac\uc790\u5dde","country_iso_a3":"UKR"},"geometry":{"type":"Point","coordinates":[35.67821,47.19548]}},{"type":"Feature","properties":{"name":"\uc9c0\ud1a0\ubbf8\ub974\u5dde","country_iso_a3":"UKR"},"geometry":{"type":"Point","coordinates":[28.34212,50.61685]}},{"type":"Feature","properties":{"name":"\uccb4\ub974\ub2c8\uc6b0\uce58\u5dde","country_iso_a3":"UKR"},"geometry":{"type":"Point","coordinates":[25.71745,48.2015]}},{"type":"Feature","properties":{"name":"\uccb4\ub974\ub2c8\ud788\uc6b0\u5dde","country_iso_a3":"UKR"},"geometry":{"type":"Point","coordinates":[31.8373,51.35791]}},{"type":"Feature","properties":{"name":"\uccb4\ub974\uce74\uc2dc\u5dde","country_iso_a3":"UKR"},"geometry":{"type":"Point","coordinates":[31.84788,49.35216]}},{"type":"Feature","properties":{"name":"\ud0a4\ub85c\ubcf4\ud750\ub77c\ub4dc\u5dde","country_iso_a3":"UKR"},"geometry":{"type":"Point","coordinates":[31.879,48.50625]}},{"type":"Feature","properties":{"name":"\ud0a4\uc608\ud504\u5dde","country_iso_a3":"UKR"},"geometry":{"type":"Point","coordinates":[31.45955,50.3319]}},{"type":"Feature","properties":{"name":"\ud0a4\uc608\ud504\u5dde","country_iso_a3":"UKR"},"geometry":{"type":"Point","coordinates":[30.60422,50.34047]}},{"type":"Feature","properties":{"name":"\ud14c\ub974\ub178\ud544\u5dde","country_iso_a3":"UKR"},"geometry":{"type":"Point","coordinates":[25.51821,49.38474]}},{"type":"Feature","properties":{"name":"\ud3f4\ud0c0\ubc14\u5dde","country_iso_a3":"UKR"},"geometry":{"type":"Point","coordinates":[34.0585,49.64715]}},{"type":"Feature","properties":{"name":"\ud558\ub974\ud0a4\uc6b0\u5dde","country_iso_a3":"UKR"},"geometry":{"type":"Point","coordinates":[36.61931,49.47874]}},{"type":"Feature","properties":{"name":"\ud5e4\ub974\uc190\u5dde","country_iso_a3":"UKR"},"geometry":{"type":"Point","coordinates":[33.47487,46.78608]}},{"type":"Feature","properties":{"name":"\ud750\uba5c\ub2c8\uce20\ud0a4\u5dde","country_iso_a3":"UKR"},"geometry":{"type":"Point","coordinates":[26.9388,49.52016]}},{"type":"Feature","properties":{"name":"\ub2e4\ub9c8\ub974\u5dde","country_iso_a3":"YEM"},"geometry":{"type":"Point","coordinates":[44.36043,14.55246]}},{"type":"Feature","properties":{"name":"\ub2ec\ub9ac\u5dde","country_iso_a3":"YEM"},"geometry":{"type":"Point","coordinates":[44.80871,13.87079]}},{"type":"Feature","properties":{"name":"\ub77c\uc774\ub9c8\u5dde","country_iso_a3":"YEM"},"geometry":{"type":"Point","coordinates":[43.74274,14.65753]}},{"type":"Feature","properties":{"name":"\ub77c\ud788\uc988\u5dde","country_iso_a3":"YEM"},"geometry":{"type":"Point","coordinates":[44.77092,13.30664]}},{"type":"Feature","properties":{"name":"\ub9c8\ub77c\u5dde","country_iso_a3":"YEM"},"geometry":{"type":"Point","coordinates":[51.9243,16.98059]}},{"type":"Feature","properties":{"name":"\ub9c8\ub9ac\ube0c\u5dde","country_iso_a3":"YEM"},"geometry":{"type":"Point","coordinates":[45.4785,15.32449]}},{"type":"Feature","properties":{"name":"\ub9c8\uc704\ud2b8\u5dde","country_iso_a3":"YEM"},"geometry":{"type":"Point","coordinates":[43.56779,15.29187]}},{"type":"Feature","properties":{"name":"\ubc14\uc774\ub2e4\u5dde","country_iso_a3":"YEM"},"geometry":{"type":"Point","coordinates":[45.30429,14.31555]}},{"type":"Feature","properties":{"name":"\uc0ac\ub098\u5dde","country_iso_a3":"YEM"},"geometry":{"type":"Point","coordinates":[44.45284,15.4075]}},{"type":"Feature","properties":{"name":"\uc0ac\ub098\u5dde","country_iso_a3":"YEM"},"geometry":{"type":"Point","coordinates":[44.18888,15.45373]}},{"type":"Feature","properties":{"name":"\uc0ac\ub2e4\u5dde","country_iso_a3":"YEM"},"geometry":{"type":"Point","coordinates":[43.96439,17.06665]}},{"type":"Feature","properties":{"name":"\uc0e4\ube0c\uc640\u5dde","country_iso_a3":"YEM"},"geometry":{"type":"Point","coordinates":[46.69083,14.65686]}},{"type":"Feature","properties":{"name":"\uc544\ub374\u5dde","country_iso_a3":"YEM"},"geometry":{"type":"Point","coordinates":[44.78513,12.79763]}},{"type":"Feature","properties":{"name":"\uc544\ube0c\uc580\u5dde","country_iso_a3":"YEM"},"geometry":{"type":"Point","coordinates":[46.28534,13.6205]}},{"type":"Feature","properties":{"name":"\uc554\ub780\u5dde","country_iso_a3":"YEM"},"geometry":{"type":"Point","coordinates":[44.01728,16.09999]}},{"type":"Feature","properties":{"name":"\uc774\ube0c\u5dde","country_iso_a3":"YEM"},"geometry":{"type":"Point","coordinates":[44.21633,14.0717]}},{"type":"Feature","properties":{"name":"\uc790\uc6b0\ud504\u5dde","country_iso_a3":"YEM"},"geometry":{"type":"Point","coordinates":[45.61733,16.61464]}},{"type":"Feature","properties":{"name":"\ud0c0\uc774\uc988\u5dde","country_iso_a3":"YEM"},"geometry":{"type":"Point","coordinates":[43.79962,13.30664]}},{"type":"Feature","properties":{"name":"\ud558\ub4dc\ub77c\ub9c8\uc6b0\ud2b8\u5dde","country_iso_a3":"YEM"},"geometry":{"type":"Point","coordinates":[48.66334,16.53438]}},{"type":"Feature","properties":{"name":"\ud558\uc790\u5dde","country_iso_a3":"YEM"},"geometry":{"type":"Point","coordinates":[43.25564,16.07068]}},{"type":"Feature","properties":{"name":"\ud638\ub370\uc774\ub2e4\u5dde","country_iso_a3":"YEM"},"geometry":{"type":"Point","coordinates":[43.24362,14.78995]}}]}